{"type":"FeatureCollection","features":[{"type":"Feature","properties":{"kind":"deck","name":"광안대교","hb":0.5,"h":3.4},"geometry":{"type":"Polygon","coordinates":[[[129.1097399895555,35.13441924549915],[129.1102545044569,35.13500183688471],[129.1104771253459,35.13487034588641],[129.1099626104445,35.13428775450085],[129.1097399895555,35.13441924549915]]]}},{"type":"Feature","properties":{"kind":"deck","name":"광안대교","hb":0.5,"h":6.2},"geometry":{"type":"Polygon","coordinates":[[[129.11026896046542,35.13501568491199],[129.1108896161746,35.13552079138442],[129.11108332504656,35.135361604331564],[129.11046266933738,35.13485649785913],[129.11026896046542,35.13501568491199]]]}},{"type":"Feature","properties":{"kind":"deck","name":"광안대교","hb":0.5,"h":9},"geometry":{"type":"Polygon","coordinates":[[[129.11091974754768,35.13553933810164],[129.1116838539022,35.13588676906092],[129.111817300028,35.13569048857363],[129.11105319367348,35.13534305761435],[129.11091974754768,35.13553933810164]]]}},{"type":"Feature","properties":{"kind":"deck","name":"광안대교","hb":0.5,"h":11.8},"geometry":{"type":"Polygon","coordinates":[[[129.1117175306188,35.13589761763997],[129.11256833695958,35.13607014393441],[129.11263442965222,35.13585216628902],[129.11178362331142,35.13567963999458],[129.1117175306188,35.13589761763997]]]}},{"type":"Feature","properties":{"kind":"deck","name":"광안대교","hb":2.6,"h":14.6},"geometry":{"type":"Polygon","coordinates":[[[129.11257900557518,35.136071943255864],[129.1134460157285,35.136189062559694],[129.11349077118993,35.1359674862714],[129.11262376103662,35.13585036696757],[129.11257900557518,35.136071943255864]]]}},{"type":"Feature","properties":{"kind":"deck","name":"광안대교","hb":5.4,"h":17.4},"geometry":{"type":"Polygon","coordinates":[[[129.1134471482052,35.13618921157198],[129.11431534234993,35.13630040575694],[129.11435783285793,35.13607853144407],[129.11348963871322,35.13596733725911],[129.1134471482052,35.13618921157198]]]}},{"type":"Feature","properties":{"kind":"deck","name":"광안대교","hb":8.2,"h":20.2},"geometry":{"type":"Polygon","coordinates":[[[129.11431494732372,35.13630035468564],[129.11518274051633,35.13641361589538],[129.11522602107675,35.136191843725115],[129.11435822788414,35.136078582515374],[129.11431494732372,35.13630035468564]]]}},{"type":"Feature","properties":{"kind":"deck","name":"광안대교","hb":11,"h":23},"geometry":{"type":"Polygon","coordinates":[[[129.11518296865708,35.136413645514395],[129.11605097890953,35.136525710464795],[129.11609380318845,35.1363038790565],[129.115225792936,35.1361918141061],[129.11518296865708,35.136413645514395]]]}},{"type":"Feature","properties":{"kind":"deck","name":"광안대교","hb":13.8,"h":25.8},"geometry":{"type":"Polygon","coordinates":[[[129.1160525779911,35.13652590903155],[129.11692216200422,35.13662960693822],[129.11696178812,35.13640737839642],[129.11609220410688,35.136303680489746],[129.1160525779911,35.13652590903155]]]}},{"type":"Feature","properties":{"kind":"deck","name":"광안대교","hb":16.6,"h":28.6},"geometry":{"type":"Polygon","coordinates":[[[129.11692108870167,35.13662947540572],[129.117789587674,35.13673878348904],[129.11783136039486,35.13651681801224],[129.11696286142254,35.13640750992892],[129.11692108870167,35.13662947540572]]]}},{"type":"Feature","properties":{"kind":"deck","name":"광안대교","hb":19.4,"h":31.4},"geometry":{"type":"Polygon","coordinates":[[[129.11777827877137,35.13673695986577],[129.11863177851876,35.136905308472215],[129.11869616904488,35.13668699024195],[129.1178426692975,35.136518641635504],[129.11777827877137,35.13673695986577]]]}},{"type":"Feature","properties":{"kind":"deck","name":"광안대교","hb":22,"h":34},"geometry":{"type":"Polygon","coordinates":[[[129.11861135081634,35.13689986527113],[129.1194215961006,35.13717479279724],[129.11952684203158,35.13696736096914],[129.1187165967473,35.13669243344303],[129.11861135081634,35.13689986527113]]]}},{"type":"Feature","properties":{"kind":"deck","name":"광안대교","hb":22,"h":34},"geometry":{"type":"Polygon","coordinates":[[[129.1194008971665,35.137166016901396],[129.12014297721737,35.13754928567359],[129.12028962101652,35.13735940563718],[129.11954754096567,35.13697613686498],[129.1194008971665,35.137166016901396]]]}},{"type":"Feature","properties":{"kind":"deck","name":"광안대교","hb":22,"h":34},"geometry":{"type":"Polygon","coordinates":[[[129.12012302324183,35.137536750320244],[129.12076728282773,35.1380244383088],[129.12095383457796,35.13785962897908],[129.12030957499206,35.137371940990526],[129.12012302324183,35.137536750320244]]]}},{"type":"Feature","properties":{"kind":"deck","name":"광안대교","hb":22,"h":34},"geometry":{"type":"Polygon","coordinates":[[[129.12075712780307,35.13801588992341],[129.12133506377643,35.138557143464304],[129.12154192557597,35.13840943090536],[129.12096398960261,35.13786817736447],[129.12075712780307,35.13801588992341]]]}},{"type":"Feature","properties":{"kind":"deck","name":"광안대교","hb":22,"h":34},"geometry":{"type":"Polygon","coordinates":[[[129.12132978649115,35.13855188885793],[129.12186666374467,35.13912081352633],[129.12208408011477,35.138983610180134],[129.12154720286125,35.138414685511734],[129.12132978649115,35.13855188885793]]]}},{"type":"Feature","properties":{"kind":"deck","name":"광안대교","hb":22,"h":34},"geometry":{"type":"Polygon","coordinates":[[[129.12186711354937,35.13912128834833],[129.12240772122155,35.13968786621168],[129.12262423798225,35.13954971322149],[129.12208363031007,35.13898313535814],[129.12186711354937,35.13912128834833]]]}},{"type":"Feature","properties":{"kind":"deck","name":"광안대교","hb":22,"h":34},"geometry":{"type":"Polygon","coordinates":[[[129.1224079447623,35.13968810063703],[129.12295039695536,35.14025351099598],[129.12316646663456,35.14011488915509],[129.1226240144415,35.13954947879614],[129.1224079447623,35.13968810063703]]]}},{"type":"Feature","properties":{"kind":"deck","name":"광안대교","hb":22,"h":34},"geometry":{"type":"Polygon","coordinates":[[[129.12295014079683,35.14025324395189],[129.1234905065967,35.14081999082307],[129.12370708859297,35.140681903070366],[129.1231667227931,35.14011515619919],[129.12295014079683,35.14025324395189]]]}},{"type":"Feature","properties":{"kind":"deck","name":"광안대교","hb":22,"h":34},"geometry":{"type":"Polygon","coordinates":[[[129.1234905736697,35.14082006190177],[129.1240314961059,35.14138645021977],[129.1242479439562,35.14124822030966],[129.12370702151998,35.140681831991664],[129.1234905736697,35.14082006190177]]]}},{"type":"Feature","properties":{"kind":"deck","name":"광안대교","hb":22,"h":34},"geometry":{"type":"Polygon","coordinates":[[[129.1240320032815,35.14138697878629],[129.1245770706444,35.141950713405414],[129.12479250414347,35.141811426362274],[129.1242474367806,35.141247691743146],[129.1240320032815,35.14138697878629]]]}},{"type":"Feature","properties":{"kind":"deck","name":"광안대교","hb":22,"h":34},"geometry":{"type":"Polygon","coordinates":[[[129.1245770696114,35.14195071310862],[129.12512213697428,35.14251444772774],[129.12533757253934,35.14237516127819],[129.12479250517646,35.14181142665907],[129.1245770696114,35.14195071310862]]]}},{"type":"Feature","properties":{"kind":"deck","name":"광안대교","hb":22,"h":34},"geometry":{"type":"Polygon","coordinates":[[[129.12512213828904,35.14251444985905],[129.12566723334433,35.143078181176975],[129.12588266627986,35.142938890464805],[129.12533757122458,35.14237515914688],[129.12512213828904,35.14251444985905]]]}},{"type":"Feature","properties":{"kind":"deck","name":"광안대교","hb":22,"h":34},"geometry":{"type":"Polygon","coordinates":[[[129.12566723266602,35.14307818124703],[129.1262123319054,35.143641912066165],[129.12642776619757,35.14350262121389],[129.12588266695818,35.14293889039475],[129.12566723266602,35.14307818124703]]]}},{"type":"Feature","properties":{"kind":"deck","name":"광안대교","hb":22,"h":34},"geometry":{"type":"Polygon","coordinates":[[[129.12621233087233,35.14364191176936],[129.12675743011175,35.1442056425885],[129.12697286647006,35.144066352329844],[129.12642776723064,35.1435026215107],[129.12621233087233,35.14364191176936]]]}},{"type":"Feature","properties":{"kind":"deck","name":"광안대교","hb":22,"h":34},"geometry":{"type":"Polygon","coordinates":[[[129.12675742907865,35.14420564229168],[129.12730252831804,35.14476937311082],[129.12751796674254,35.144630083445804],[129.12697286750316,35.144066352626666],[129.12675742907865,35.14420564229168]]]}},{"type":"Feature","properties":{"kind":"deck","name":"광안대교","hb":22,"h":34},"geometry":{"type":"Polygon","coordinates":[[[129.12730252728494,35.144769372814],[129.12784762652433,35.145333103633135],[129.12806306701503,35.145193814561765],[129.12751796777565,35.144630083742626],[129.12730252728494,35.144769372814]]]}},{"type":"Feature","properties":{"kind":"deck","name":"광안대교","hb":22,"h":34},"geometry":{"type":"Polygon","coordinates":[[[129.12784762549117,35.145333103336306],[129.12839272473056,35.145896834155444],[129.12860816728758,35.14575754567773],[129.1280630680482,35.145193814858594],[129.12784762549117,35.145333103336306]]]}},{"type":"Feature","properties":{"kind":"deck","name":"광안대교","hb":22,"h":34},"geometry":{"type":"Polygon","coordinates":[[[129.12839272369737,35.14589683385861],[129.1289378229368,35.14646056467775],[129.12915326756018,35.146321276793714],[129.12860816832077,35.14575754597457],[129.12839272369737,35.14589683385861]]]}},{"type":"Feature","properties":{"kind":"deck","name":"광안대교","hb":22,"h":34},"geometry":{"type":"Polygon","coordinates":[[[129.12893782190358,35.14646056438091],[129.12948292114297,35.14702429520005],[129.1296983678328,35.146885007909695],[129.1291532685934,35.14632127709056],[129.12893782190358,35.14646056438091]]]}},{"type":"Feature","properties":{"kind":"deck","name":"광안대교","hb":22,"h":34},"geometry":{"type":"Polygon","coordinates":[[[129.12948292010972,35.1470242949032],[129.1300280193491,35.147588025722335],[129.13024346810542,35.147448739025684],[129.12969836886603,35.146885008206546],[129.12948292010972,35.1470242949032]]]}},{"type":"Feature","properties":{"kind":"deck","name":"광안대교","hb":22,"h":34},"geometry":{"type":"Polygon","coordinates":[[[129.13002801831584,35.14758802542548],[129.13057311755523,35.148151756244616],[129.13078856837808,35.14801247014168],[129.1302434691387,35.14744873932254],[129.13002801831584,35.14758802542548]]]}},{"type":"Feature","properties":{"kind":"deck","name":"광안대교","hb":22,"h":34},"geometry":{"type":"Polygon","coordinates":[[[129.13057311652193,35.14815175594776],[129.13111821576135,35.148715486766896],[129.1313336686508,35.148576201257676],[129.13078856941138,35.14801247043854],[129.13057311652193,35.14815175594776]]]}},{"type":"Feature","properties":{"kind":"deck","name":"광안대교","hb":22,"h":34},"geometry":{"type":"Polygon","coordinates":[[[129.13111771910482,35.148714970820045],[129.13165877857696,35.14928129129365],[129.13187522477946,35.14914303767813],[129.13133416530732,35.14857671720453],[129.13111771910482,35.148714970820045]]]}},{"type":"Feature","properties":{"kind":"deck","name":"광안대교","hb":22,"h":34},"geometry":{"type":"Polygon","coordinates":[[[129.13165831793705,35.14928080722315],[129.13219560401024,35.14984954659834],[129.13241297149256,35.14971226112382],[129.13187568541937,35.14914352174863],[129.13165831793705,35.14928080722315]]]}},{"type":"Feature","properties":{"kind":"deck","name":"광안대교","hb":22,"h":34},"geometry":{"type":"Polygon","coordinates":[[[129.13219530604636,35.14984923084232],[129.13273012355552,35.15041952461552],[129.1329480869656,35.15028287065304],[129.13241326945644,35.149712576879836],[129.13219530604636,35.14984923084232]]]}},{"type":"Feature","properties":{"kind":"deck","name":"광안대교","hb":22,"h":34},"geometry":{"type":"Polygon","coordinates":[[[129.13272999282088,35.15041938580112],[129.1332637285247,35.15099036076229],[129.13348195340404,35.15085398442861],[129.13294821770023,35.15028300946744],[129.13272999282088,35.15041938580112]]]}},{"type":"Feature","properties":{"kind":"deck","name":"광안대교","hb":22,"h":34},"geometry":{"type":"Polygon","coordinates":[[[129.13326408460256,35.15099074081572],[129.13380078144726,35.15155982996846],[129.1340182941709,35.15142269352792],[129.13348159732618,35.15085360437518],[129.13326408460256,35.15099074081572]]]}},{"type":"Feature","properties":{"kind":"deck","name":"광안대교","hb":22,"h":34},"geometry":{"type":"Polygon","coordinates":[[[129.13380202721612,35.15156113178577],[129.13434893603622,35.15212371742175],[129.13456395722213,35.151983977346596],[129.13401704840203,35.15142139171061],[129.13380202721612,35.15156113178577]]]}},{"type":"Feature","properties":{"kind":"deck","name":"광안대교","hb":22,"h":34},"geometry":{"type":"Polygon","coordinates":[[[129.13434893500505,35.1521237171257],[129.13489584382518,35.15268630276168],[129.13511086707342,35.152546563278634],[129.1345639582533,35.15198397764265],[129.13434893500505,35.1521237171257]]]}},{"type":"Feature","properties":{"kind":"deck","name":"광안대교","hb":22,"h":34},"geometry":{"type":"Polygon","coordinates":[[[129.13489494015008,35.15268536374742],[129.13543448105432,35.153252651598606],[129.13565131165277,35.15311479014407],[129.13511177074852,35.15254750229289],[129.13489494015008,35.15268536374742]]]}},{"type":"Feature","properties":{"kind":"deck","name":"광안대교","hb":22,"h":34},"geometry":{"type":"Polygon","coordinates":[[[129.1354333869213,35.15325148635878],[129.13596378497763,35.153824467322465],[129.1361828038421,35.15368893634758],[129.13565240578578,35.153115955383896],[129.1354333869213,35.15325148635878]]]}},{"type":"Feature","properties":{"kind":"deck","name":"광안대교","hb":22,"h":34},"geometry":{"type":"Polygon","coordinates":[[[129.1359558121815,35.15381486100655],[129.13640868574964,35.154426394043774],[129.1366436502064,35.154310075700714],[129.13619077663824,35.15369854266349],[129.1359558121815,35.15381486100655]]]}},{"type":"Feature","properties":{"kind":"deck","name":"광안대교","hb":19.7,"h":31.7},"geometry":{"type":"Polygon","coordinates":[[[129.1363982010626,35.15440900685363],[129.1367171751436,35.155078233813974],[129.13697310897442,35.154996689851195],[129.13665413489343,35.154327462890855],[129.1363982010626,35.15440900685363]]]}},{"type":"Feature","properties":{"kind":"deck","name":"광안대교","hb":16.9,"h":28.9},"geometry":{"type":"Polygon","coordinates":[[[129.13671010656532,35.155057951790084],[129.13686997052568,35.155762210560745],[129.13714004151305,35.155721230645746],[129.1369801775527,35.155016971875085],[129.13671010656532,35.155057951790084]]]}},{"type":"Feature","properties":{"kind":"deck","name":"광안대교","hb":14.1,"h":26.1},"geometry":{"type":"Polygon","coordinates":[[[129.1368676645056,35.155741279026515],[129.13686421336007,35.15645878604064],[129.13713889638763,35.1564596691941],[129.13714234753314,35.155742162179976],[129.1368676645056,35.155741279026515]]]}},{"type":"Feature","properties":{"kind":"deck","name":"광안대교","hb":11.3,"h":23.3},"geometry":{"type":"Polygon","coordinates":[[[129.13686677569487,35.15643762920465],[129.13669838389904,35.15714002442443],[129.136967942257,35.15718322124986],[129.13713633405283,35.156480826030084],[129.13686677569487,35.15643762920465]]]}},{"type":"Feature","properties":{"kind":"deck","name":"광안대교","hb":8.5,"h":20.5},"geometry":{"type":"Polygon","coordinates":[[[129.13670385113767,35.15712378368848],[129.13640790773786,35.15779980162597],[129.13666653161857,35.15787547992329],[129.13696247501838,35.157199461985805],[129.13670385113767,35.15712378368848]]]}},{"type":"Feature","properties":{"kind":"deck","name":"광안대교","hb":5.7,"h":17.7},"geometry":{"type":"Polygon","coordinates":[[[129.13641704864986,35.15778326891601],[129.13599174507905,35.15841157310263],[129.13623208713577,35.15852031681987],[129.13665739070657,35.15789201263325],[129.13641704864986,35.15778326891601]]]}},{"type":"Feature","properties":{"kind":"deck","name":"광안대교","hb":2.9,"h":14.9},"geometry":{"type":"Polygon","coordinates":[[[129.1359960833311,35.158405606031906],[129.13552390682096,35.15901147258911],[129.1357555723736,35.159132150447796],[129.13622774888373,35.158526283890595],[129.1359960833311,35.158405606031906]]]}},{"type":"Feature","properties":{"kind":"deck","name":"광안대교","hb":0.5,"h":12.1},"geometry":{"type":"Polygon","coordinates":[[[129.13552620662216,35.159008617425215],[129.13503151420562,35.159602653904734],[129.13525858015586,35.15972904209121],[129.1357532725724,35.15913500561169],[129.13552620662216,35.159008617425215]]]}},{"type":"Feature","properties":{"kind":"deck","name":"광안대교","hb":0.5,"h":9.3},"geometry":{"type":"Polygon","coordinates":[[[129.13502645838145,35.15960919794013],[129.13458319362,35.16022939880775],[129.13482037121858,35.160342698923436],[129.13526363598004,35.159722498055814],[129.13502645838145,35.15960919794013]]]}},{"type":"Feature","properties":{"kind":"deck","name":"광안대교","hb":0.5,"h":6.5},"geometry":{"type":"Polygon","coordinates":[[[129.13458107515197,35.160232471372645],[129.13416181126885,35.16086380314821],[129.13440322580348,35.16097095813411],[129.1348224896866,35.16033962635854],[129.13458107515197,35.160232471372645]]]}},{"type":"Feature","properties":{"kind":"deck","name":"광안대교","hb":0.5,"h":3.7},"geometry":{"type":"Polygon","coordinates":[[[129.13415344835892,35.16087898033289],[129.13385368159078,35.16155240168234],[129.13411182194528,35.16162920229888],[129.13441158871342,35.16095578094943],[129.13415344835892,35.16087898033289]]]}},{"type":"Feature","properties":{"kind":"deck","name":"광안대교","hb":0.5,"h":3},"geometry":{"type":"Polygon","coordinates":[[[129.1338493178002,35.1615641735262],[129.13382656603218,35.16164037153559],[129.13409343396782,35.16169362846441],[129.13411618573585,35.161617430455024],[129.1338493178002,35.1615641735262]]]}},{"type":"Feature","properties":{"kind":"pylon","name":"광안대교","hb":0,"h":105},"geometry":{"type":"Polygon","coordinates":[[[129.13001168324058,35.14735730635368],[129.1301764767594,35.14735730635368],[129.1301764767594,35.1474920536463],[129.13001168324058,35.1474920536463],[129.13001168324058,35.14735730635368]]]}},{"type":"Feature","properties":{"kind":"pylon","name":"광안대교","hb":0,"h":105},"geometry":{"type":"Polygon","coordinates":[[[129.12658868682684,35.14381496635369],[129.12675347317315,35.14381496635369],[129.12675347317315,35.14394971364631],[129.12658868682684,35.14394971364631],[129.12658868682684,35.14381496635369]]]}},{"type":"Feature","properties":{"kind":"cable","name":"광안대교","hb":102.5,"h":105},"geometry":{"type":"Polygon","coordinates":[[[129.13012698756356,35.1473631913524],[129.13018191871018,35.1473631913524],[129.13018191871018,35.147408107116604],[129.13012698756356,35.147408107116604],[129.13012698756356,35.1473631913524]]]}},{"type":"Feature","properties":{"kind":"cable","name":"광안대교","hb":102.5,"h":105},"geometry":{"type":"Polygon","coordinates":[[[129.12994600992943,35.14748019199389],[129.130000941155,35.14748019199389],[129.130000941155,35.1475251077581],[129.12994600992943,35.1475251077581],[129.12994600992943,35.14748019199389]]]}},{"type":"Feature","properties":{"kind":"cable","name":"광안대교","hb":98.5,"h":101},"geometry":{"type":"Polygon","coordinates":[[[129.13007348137165,35.147307856354566],[129.13012841248093,35.147307856354566],[129.13012841248093,35.14735277211877],[129.13007348137165,35.14735277211877],[129.13007348137165,35.147307856354566]]]}},{"type":"Feature","properties":{"kind":"cable","name":"광안대교","hb":98.5,"h":101},"geometry":{"type":"Polygon","coordinates":[[[129.12989250390794,35.147424857045046],[129.12994743509617,35.147424857045046],[129.12994743509617,35.14746977280925],[129.12989250390794,35.14746977280925],[129.12989250390794,35.147424857045046]]]}},{"type":"Feature","properties":{"kind":"cable","name":"광안대교","hb":94.6,"h":97.1},"geometry":{"type":"Polygon","coordinates":[[[129.1300199751798,35.14725252135675],[129.13007490625168,35.14725252135675],[129.13007490625168,35.147297437120955],[129.1300199751798,35.147297437120955],[129.1300199751798,35.14725252135675]]]}},{"type":"Feature","properties":{"kind":"cable","name":"광안대교","hb":94.6,"h":97.1},"geometry":{"type":"Polygon","coordinates":[[[129.12983899788642,35.14736952209617],[129.1298939290373,35.14736952209617],[129.1298939290373,35.14741443786038],[129.12983899788642,35.14741443786038],[129.12983899788642,35.14736952209617]]]}},{"type":"Feature","properties":{"kind":"cable","name":"광안대교","hb":90.9,"h":93.4},"geometry":{"type":"Polygon","coordinates":[[[129.12996646898793,35.147197186358945],[129.13002140002246,35.147197186358945],[129.13002140002246,35.14724210212315],[129.12996646898793,35.14724210212315],[129.12996646898793,35.147197186358945]]]}},{"type":"Feature","properties":{"kind":"cable","name":"광안대교","hb":90.9,"h":93.4},"geometry":{"type":"Polygon","coordinates":[[[129.1297854918649,35.147314187147295],[129.12984042297845,35.147314187147295],[129.12984042297845,35.1473591029115],[129.1297854918649,35.1473591029115],[129.1297854918649,35.147314187147295]]]}},{"type":"Feature","properties":{"kind":"cable","name":"광안대교","hb":87.3,"h":89.8},"geometry":{"type":"Polygon","coordinates":[[[129.12991296279603,35.14714185136113],[129.1299678937932,35.14714185136113],[129.1299678937932,35.14718676712533],[129.12991296279603,35.14718676712533],[129.12991296279603,35.14714185136113]]]}},{"type":"Feature","properties":{"kind":"cable","name":"광안대교","hb":87.3,"h":89.8},"geometry":{"type":"Polygon","coordinates":[[[129.12973198584342,35.14725885219843],[129.1297869169196,35.14725885219843],[129.1297869169196,35.14730376796264],[129.12973198584342,35.14730376796264],[129.12973198584342,35.14725885219843]]]}},{"type":"Feature","properties":{"kind":"cable","name":"광안대교","hb":83.8,"h":86.3},"geometry":{"type":"Polygon","coordinates":[[[129.12985945660418,35.14708651636331],[129.129914387564,35.14708651636331],[129.129914387564,35.147131432127516],[129.12985945660418,35.147131432127516],[129.12985945660418,35.14708651636331]]]}},{"type":"Feature","properties":{"kind":"cable","name":"광안대교","hb":83.8,"h":86.3},"geometry":{"type":"Polygon","coordinates":[[[129.12967847982193,35.14720351724957],[129.12973341086078,35.14720351724957],[129.12973341086078,35.14724843301378],[129.12967847982193,35.14724843301378],[129.12967847982193,35.14720351724957]]]}},{"type":"Feature","properties":{"kind":"cable","name":"광안대교","hb":80.4,"h":82.9},"geometry":{"type":"Polygon","coordinates":[[[129.12980595041225,35.14703118136548],[129.12986088133474,35.14703118136548],[129.12986088133474,35.147076097129684],[129.12980595041225,35.147076097129684],[129.12980595041225,35.14703118136548]]]}},{"type":"Feature","properties":{"kind":"cable","name":"광안대교","hb":80.4,"h":82.9},"geometry":{"type":"Polygon","coordinates":[[[129.12962497380047,35.14714818230071],[129.12967990480197,35.14714818230071],[129.12967990480197,35.14719309806492],[129.12962497380047,35.14719309806492],[129.12962497380047,35.14714818230071]]]}},{"type":"Feature","properties":{"kind":"cable","name":"광안대교","hb":77.2,"h":79.7},"geometry":{"type":"Polygon","coordinates":[[[129.12975244422037,35.14697584636766],[129.12980737510551,35.14697584636766],[129.12980737510551,35.147020762131866],[129.12975244422037,35.147020762131866],[129.12975244422037,35.14697584636766]]]}},{"type":"Feature","properties":{"kind":"cable","name":"광안대교","hb":77.2,"h":79.7},"geometry":{"type":"Polygon","coordinates":[[[129.129571467779,35.14709284735185],[129.12962639874308,35.14709284735185],[129.12962639874308,35.147137763116056],[129.129571467779,35.147137763116056],[129.129571467779,35.14709284735185]]]}},{"type":"Feature","properties":{"kind":"cable","name":"광안대교","hb":74.1,"h":76.6},"geometry":{"type":"Polygon","coordinates":[[[129.12969893802847,35.14692051136984],[129.12975386887626,35.14692051136984],[129.12975386887626,35.14696542713405],[129.12969893802847,35.14696542713405],[129.12969893802847,35.14692051136984]]]}},{"type":"Feature","properties":{"kind":"cable","name":"광안대교","hb":74.1,"h":76.6},"geometry":{"type":"Polygon","coordinates":[[[129.1295179617575,35.14703751240299],[129.12957289268425,35.14703751240299],[129.12957289268425,35.147082428167195],[129.1295179617575,35.147082428167195],[129.1295179617575,35.14703751240299]]]}},{"type":"Feature","properties":{"kind":"cable","name":"광안대교","hb":71.1,"h":73.6},"geometry":{"type":"Polygon","coordinates":[[[129.1296454318366,35.146865176372046],[129.12970036264704,35.146865176372046],[129.12970036264704,35.14691009213625],[129.1296454318366,35.14691009213625],[129.1296454318366,35.146865176372046]]]}},{"type":"Feature","properties":{"kind":"cable","name":"광안대교","hb":71.1,"h":73.6},"geometry":{"type":"Polygon","coordinates":[[[129.12946445573598,35.146982177454106],[129.1295193866254,35.146982177454106],[129.1295193866254,35.14702709321831],[129.12946445573598,35.14702709321831],[129.12946445573598,35.146982177454106]]]}},{"type":"Feature","properties":{"kind":"cable","name":"광안대교","hb":68.2,"h":70.7},"geometry":{"type":"Polygon","coordinates":[[[129.12959192564475,35.14680984137422],[129.12964685641785,35.14680984137422],[129.12964685641785,35.14685475713843],[129.12959192564475,35.14685475713843],[129.12959192564475,35.14680984137422]]]}},{"type":"Feature","properties":{"kind":"cable","name":"광안대교","hb":68.2,"h":70.7},"geometry":{"type":"Polygon","coordinates":[[[129.1294109497145,35.14692684250524],[129.12946588056656,35.14692684250524],[129.12946588056656,35.146971758269444],[129.1294109497145,35.146971758269444],[129.1294109497145,35.14692684250524]]]}},{"type":"Feature","properties":{"kind":"cable","name":"광안대교","hb":65.5,"h":68},"geometry":{"type":"Polygon","coordinates":[[[129.12953841945284,35.1467545063764],[129.1295933501886,35.1467545063764],[129.1295933501886,35.14679942214061],[129.12953841945284,35.14679942214061],[129.12953841945284,35.1467545063764]]]}},{"type":"Feature","properties":{"kind":"cable","name":"광안대교","hb":65.5,"h":68},"geometry":{"type":"Polygon","coordinates":[[[129.129357443693,35.14687150755638],[129.12941237450772,35.14687150755638],[129.12941237450772,35.14691642332058],[129.129357443693,35.14691642332058],[129.129357443693,35.14687150755638]]]}},{"type":"Feature","properties":{"kind":"cable","name":"광안대교","hb":62.9,"h":65.4},"geometry":{"type":"Polygon","coordinates":[[[129.12948491326097,35.14669917137857],[129.12953984395938,35.14669917137857],[129.12953984395938,35.14674408714278],[129.12948491326097,35.14674408714278],[129.12948491326097,35.14669917137857]]]}},{"type":"Feature","properties":{"kind":"cable","name":"광안대교","hb":62.9,"h":65.4},"geometry":{"type":"Polygon","coordinates":[[[129.1293039376715,35.14681617260753],[129.12935886844886,35.14681617260753],[129.12935886844886,35.146861088371736],[129.1293039376715,35.146861088371736],[129.1293039376715,35.14681617260753]]]}},{"type":"Feature","properties":{"kind":"cable","name":"광안대교","hb":60.4,"h":62.9},"geometry":{"type":"Polygon","coordinates":[[[129.12943140706906,35.14664383638076],[129.12948633773013,35.14664383638076],[129.12948633773013,35.14668875214497],[129.12943140706906,35.14668875214497],[129.12943140706906,35.14664383638076]]]}},{"type":"Feature","properties":{"kind":"cable","name":"광안대교","hb":60.4,"h":62.9},"geometry":{"type":"Polygon","coordinates":[[[129.12925043165,35.14676083765866],[129.12930536239003,35.14676083765866],[129.12930536239003,35.14680575342287],[129.12925043165,35.14680575342287],[129.12925043165,35.14676083765866]]]}},{"type":"Feature","properties":{"kind":"cable","name":"광안대교","hb":58.1,"h":60.6},"geometry":{"type":"Polygon","coordinates":[[[129.1293779008772,35.146588501382965],[129.1294328315009,35.146588501382965],[129.1294328315009,35.14663341714717],[129.1293779008772,35.14663341714717],[129.1293779008772,35.146588501382965]]]}},{"type":"Feature","properties":{"kind":"cable","name":"광안대교","hb":58.1,"h":60.6},"geometry":{"type":"Polygon","coordinates":[[[129.1291969256285,35.14670550270978],[129.12925185633117,35.14670550270978],[129.12925185633117,35.146750418473985],[129.1291969256285,35.146750418473985],[129.1291969256285,35.14670550270978]]]}},{"type":"Feature","properties":{"kind":"cable","name":"광안대교","hb":55.8,"h":58.3},"geometry":{"type":"Polygon","coordinates":[[[129.1293243946853,35.14653316638513],[129.12937932527169,35.14653316638513],[129.12937932527169,35.14657808214934],[129.1293243946853,35.14657808214934],[129.1293243946853,35.14653316638513]]]}},{"type":"Feature","properties":{"kind":"cable","name":"광안대교","hb":55.8,"h":58.3},"geometry":{"type":"Polygon","coordinates":[[[129.12914341960698,35.14665016776092],[129.1291983502723,35.14665016776092],[129.1291983502723,35.146695083525124],[129.12914341960698,35.146695083525124],[129.12914341960698,35.14665016776092]]]}},{"type":"Feature","properties":{"kind":"cable","name":"광안대교","hb":53.8,"h":56.3},"geometry":{"type":"Polygon","coordinates":[[[129.12927088849344,35.14647783138732],[129.12932581904246,35.14647783138732],[129.12932581904246,35.14652274715153],[129.12927088849344,35.14652274715153],[129.12927088849344,35.14647783138732]]]}},{"type":"Feature","properties":{"kind":"cable","name":"광안대교","hb":53.8,"h":56.3},"geometry":{"type":"Polygon","coordinates":[[[129.12908991358552,35.14659483281205],[129.1291448442135,35.14659483281205],[129.1291448442135,35.146639748576256],[129.12908991358552,35.146639748576256],[129.12908991358552,35.14659483281205]]]}},{"type":"Feature","properties":{"kind":"cable","name":"광안대교","hb":51.8,"h":54.3},"geometry":{"type":"Polygon","coordinates":[[[129.12921738230156,35.146422496389505],[129.12927231281324,35.146422496389505],[129.12927231281324,35.14646741215371],[129.12921738230156,35.14646741215371],[129.12921738230156,35.146422496389505]]]}},{"type":"Feature","properties":{"kind":"cable","name":"광안대교","hb":51.8,"h":54.3},"geometry":{"type":"Polygon","coordinates":[[[129.129036407564,35.14653949786319],[129.12909133815464,35.14653949786319],[129.12909133815464,35.146584413627394],[129.129036407564,35.146584413627394],[129.129036407564,35.14653949786319]]]}},{"type":"Feature","properties":{"kind":"cable","name":"광안대교","hb":49.9,"h":52.4},"geometry":{"type":"Polygon","coordinates":[[[129.1291638761097,35.14636716139167],[129.12921880658396,35.14636716139167],[129.12921880658396,35.14641207715588],[129.1291638761097,35.14641207715588],[129.1291638761097,35.14636716139167]]]}},{"type":"Feature","properties":{"kind":"cable","name":"광안대교","hb":49.9,"h":52.4},"geometry":{"type":"Polygon","coordinates":[[[129.1289829015425,35.14648416291434],[129.1290378320958,35.14648416291434],[129.1290378320958,35.14652907867855],[129.1289829015425,35.14652907867855],[129.1289829015425,35.14648416291434]]]}},{"type":"Feature","properties":{"kind":"cable","name":"광안대교","hb":48.2,"h":50.7},"geometry":{"type":"Polygon","coordinates":[[[129.12911036991778,35.146311826393855],[129.1291653003547,35.146311826393855],[129.1291653003547,35.14635674215806],[129.12911036991778,35.14635674215806],[129.12911036991778,35.146311826393855]]]}},{"type":"Feature","properties":{"kind":"cable","name":"광안대교","hb":48.2,"h":50.7},"geometry":{"type":"Polygon","coordinates":[[[129.12892939552103,35.146428827965465],[129.12898432603697,35.146428827965465],[129.12898432603697,35.14647374372967],[129.12892939552103,35.14647374372967],[129.12892939552103,35.146428827965465]]]}},{"type":"Feature","properties":{"kind":"cable","name":"광안대교","hb":46.6,"h":49.1},"geometry":{"type":"Polygon","coordinates":[[[129.12905686372594,35.14625649139605],[129.12911179412552,35.14625649139605],[129.12911179412552,35.14630140716026],[129.12905686372594,35.14630140716026],[129.12905686372594,35.14625649139605]]]}},{"type":"Feature","properties":{"kind":"cable","name":"광안대교","hb":46.6,"h":49.1},"geometry":{"type":"Polygon","coordinates":[[[129.12887588949948,35.14637349301659],[129.12893081997808,35.14637349301659],[129.12893081997808,35.1464184087808],[129.12887588949948,35.1464184087808],[129.12887588949948,35.14637349301659]]]}},{"type":"Feature","properties":{"kind":"cable","name":"광안대교","hb":45.2,"h":47.7},"geometry":{"type":"Polygon","coordinates":[[[129.12900335753403,35.14620115639824],[129.12905828789627,35.14620115639824],[129.12905828789627,35.14624607216245],[129.12900335753403,35.14624607216245],[129.12900335753403,35.14620115639824]]]}},{"type":"Feature","properties":{"kind":"cable","name":"광안대교","hb":45.2,"h":47.7},"geometry":{"type":"Polygon","coordinates":[[[129.128822383478,35.14631815806772],[129.12887731391925,35.14631815806772],[129.12887731391925,35.14636307383193],[129.128822383478,35.14636307383193],[129.128822383478,35.14631815806772]]]}},{"type":"Feature","properties":{"kind":"cable","name":"광안대교","hb":43.8,"h":46.3},"geometry":{"type":"Polygon","coordinates":[[[129.12894985134218,35.146145821400424],[129.12900478166708,35.146145821400424],[129.12900478166708,35.14619073716463],[129.12894985134218,35.14619073716463],[129.12894985134218,35.146145821400424]]]}},{"type":"Feature","properties":{"kind":"cable","name":"광안대교","hb":43.8,"h":46.3},"geometry":{"type":"Polygon","coordinates":[[[129.1287688774565,35.14626282311886],[129.1288238078604,35.14626282311886],[129.1288238078604,35.14630773888307],[129.1287688774565,35.14630773888307],[129.1287688774565,35.14626282311886]]]}},{"type":"Feature","properties":{"kind":"cable","name":"광안대교","hb":42.6,"h":45.1},"geometry":{"type":"Polygon","coordinates":[[[129.12889634515028,35.146090486402585],[129.12895127543783,35.146090486402585],[129.12895127543783,35.14613540216679],[129.12889634515028,35.14613540216679],[129.12889634515028,35.146090486402585]]]}},{"type":"Feature","properties":{"kind":"cable","name":"광안대교","hb":42.6,"h":45.1},"geometry":{"type":"Polygon","coordinates":[[[129.12871537143502,35.146207488170006],[129.12877030180158,35.146207488170006],[129.12877030180158,35.14625240393421],[129.12871537143502,35.14625240393421],[129.12871537143502,35.146207488170006]]]}},{"type":"Feature","properties":{"kind":"cable","name":"광안대교","hb":41.6,"h":44.1},"geometry":{"type":"Polygon","coordinates":[[[129.12884283895838,35.146035151404774],[129.12889776920858,35.146035151404774],[129.12889776920858,35.14608006716898],[129.12884283895838,35.14608006716898],[129.12884283895838,35.146035151404774]]]}},{"type":"Feature","properties":{"kind":"cable","name":"광안대교","hb":41.6,"h":44.1},"geometry":{"type":"Polygon","coordinates":[[[129.12866186541356,35.14615215322114],[129.12871679574272,35.14615215322114],[129.12871679574272,35.146197068985344],[129.12866186541356,35.146197068985344],[129.12866186541356,35.14615215322114]]]}},{"type":"Feature","properties":{"kind":"cable","name":"광안대교","hb":40.6,"h":43.1},"geometry":{"type":"Polygon","coordinates":[[[129.1287893327665,35.14597981640696],[129.12884426297936,35.14597981640696],[129.12884426297936,35.14602473217116],[129.1287893327665,35.14602473217116],[129.1287893327665,35.14597981640696]]]}},{"type":"Feature","properties":{"kind":"cable","name":"광안대교","hb":40.6,"h":43.1},"geometry":{"type":"Polygon","coordinates":[[[129.12860835939205,35.14609681827228],[129.12866328968386,35.14609681827228],[129.12866328968386,35.14614173403648],[129.12860835939205,35.14614173403648],[129.12860835939205,35.14609681827228]]]}},{"type":"Feature","properties":{"kind":"cable","name":"광안대교","hb":39.8,"h":42.3},"geometry":{"type":"Polygon","coordinates":[[[129.12873582657463,35.14592448140915],[129.12879075675013,35.14592448140915],[129.12879075675013,35.14596939717336],[129.12873582657463,35.14596939717336],[129.12873582657463,35.14592448140915]]]}},{"type":"Feature","properties":{"kind":"cable","name":"광안대교","hb":39.8,"h":42.3},"geometry":{"type":"Polygon","coordinates":[[[129.12855485337053,35.1460414833234],[129.128609783625,35.1460414833234],[129.128609783625,35.14608639908761],[129.12855485337053,35.14608639908761],[129.12855485337053,35.1460414833234]]]}},{"type":"Feature","properties":{"kind":"cable","name":"광안대교","hb":39.1,"h":41.6},"geometry":{"type":"Polygon","coordinates":[[[129.12868232038278,35.145869146411336],[129.12873725052094,35.145869146411336],[129.12873725052094,35.14591406217554],[129.12868232038278,35.14591406217554],[129.12868232038278,35.145869146411336]]]}},{"type":"Feature","properties":{"kind":"cable","name":"광안대교","hb":39.1,"h":41.6},"geometry":{"type":"Polygon","coordinates":[[[129.12850134734904,35.145986148374526],[129.12855627756616,35.145986148374526],[129.12855627756616,35.14603106413873],[129.12850134734904,35.14603106413873],[129.12850134734904,35.145986148374526]]]}},{"type":"Feature","properties":{"kind":"cable","name":"광안대교","hb":38.5,"h":41},"geometry":{"type":"Polygon","coordinates":[[[129.1286288141909,35.14581381141352],[129.12868374429172,35.14581381141352],[129.12868374429172,35.145858727177725],[129.1286288141909,35.145858727177725],[129.1286288141909,35.14581381141352]]]}},{"type":"Feature","properties":{"kind":"cable","name":"광안대교","hb":38.5,"h":41},"geometry":{"type":"Polygon","coordinates":[[[129.12844784132753,35.145930813425664],[129.1285027715073,35.145930813425664],[129.1285027715073,35.14597572918987],[129.12844784132753,35.14597572918987],[129.12844784132753,35.145930813425664]]]}},{"type":"Feature","properties":{"kind":"cable","name":"광안대교","hb":38.1,"h":40.6},"geometry":{"type":"Polygon","coordinates":[[[129.128575307999,35.14575847641569],[129.12863023806247,35.14575847641569],[129.12863023806247,35.1458033921799],[129.128575307999,35.1458033921799],[129.128575307999,35.14575847641569]]]}},{"type":"Feature","properties":{"kind":"cable","name":"광안대교","hb":38.1,"h":40.6},"geometry":{"type":"Polygon","coordinates":[[[129.12839433530604,35.14587547847681],[129.12844926544847,35.14587547847681],[129.12844926544847,35.14592039424102],[129.12839433530604,35.14592039424102],[129.12839433530604,35.14587547847681]]]}},{"type":"Feature","properties":{"kind":"cable","name":"광안대교","hb":37.8,"h":40.3},"geometry":{"type":"Polygon","coordinates":[[[129.1285218018071,35.145703141417876],[129.12857673183322,35.145703141417876],[129.12857673183322,35.14574805718208],[129.1285218018071,35.14574805718208],[129.1285218018071,35.145703141417876]]]}},{"type":"Feature","properties":{"kind":"cable","name":"광안대교","hb":37.8,"h":40.3},"geometry":{"type":"Polygon","coordinates":[[[129.12834082928455,35.14582014352795],[129.12839575938963,35.14582014352795],[129.12839575938963,35.145865059292156],[129.12834082928455,35.145865059292156],[129.12834082928455,35.14582014352795]]]}},{"type":"Feature","properties":{"kind":"cable","name":"광안대교","hb":37.6,"h":40.1},"geometry":{"type":"Polygon","coordinates":[[[129.12846829561522,35.145647806420065],[129.128523225604,35.145647806420065],[129.128523225604,35.14569272218427],[129.12846829561522,35.14569272218427],[129.12846829561522,35.145647806420065]]]}},{"type":"Feature","properties":{"kind":"cable","name":"광안대교","hb":37.6,"h":40.1},"geometry":{"type":"Polygon","coordinates":[[[129.12828732326304,35.14576480857908],[129.12834225333077,35.14576480857908],[129.12834225333077,35.14580972434329],[129.12828732326304,35.14580972434329],[129.12828732326304,35.14576480857908]]]}},{"type":"Feature","properties":{"kind":"cable","name":"광안대교","hb":37.5,"h":40},"geometry":{"type":"Polygon","coordinates":[[[129.12841478942335,35.145592471422255],[129.12846971937478,35.145592471422255],[129.12846971937478,35.14563738718646],[129.12841478942335,35.14563738718646],[129.12841478942335,35.145592471422255]]]}},{"type":"Feature","properties":{"kind":"cable","name":"광안대교","hb":37.5,"h":40},"geometry":{"type":"Polygon","coordinates":[[[129.12823381724152,35.1457094736302],[129.1282887472719,35.1457094736302],[129.1282887472719,35.145754389394405],[129.12823381724152,35.145754389394405],[129.12823381724152,35.1457094736302]]]}},{"type":"Feature","properties":{"kind":"cable","name":"광안대교","hb":37.6,"h":40.1},"geometry":{"type":"Polygon","coordinates":[[[129.1283612832315,35.145537136424444],[129.12841621314558,35.145537136424444],[129.12841621314558,35.14558205218865],[129.1283612832315,35.14558205218865],[129.1283612832315,35.145537136424444]]]}},{"type":"Feature","properties":{"kind":"cable","name":"광안대교","hb":37.6,"h":40.1},"geometry":{"type":"Polygon","coordinates":[[[129.12818031122004,35.14565413868133],[129.12823524121308,35.14565413868133],[129.12823524121308,35.14569905444554],[129.12818031122004,35.14569905444554],[129.12818031122004,35.14565413868133]]]}},{"type":"Feature","properties":{"kind":"cable","name":"광안대교","hb":37.8,"h":40.3},"geometry":{"type":"Polygon","coordinates":[[[129.12830777703962,35.14548180142663],[129.12836270691636,35.14548180142663],[129.12836270691636,35.14552671719083],[129.12830777703962,35.14552671719083],[129.12830777703962,35.14548180142663]]]}},{"type":"Feature","properties":{"kind":"cable","name":"광안대교","hb":37.8,"h":40.3},"geometry":{"type":"Polygon","coordinates":[[[129.12812680519852,35.14559880373247],[129.12818173515421,35.14559880373247],[129.12818173515421,35.145643719496675],[129.12812680519852,35.145643719496675],[129.12812680519852,35.14559880373247]]]}},{"type":"Feature","properties":{"kind":"cable","name":"광안대교","hb":38.1,"h":40.6},"geometry":{"type":"Polygon","coordinates":[[[129.12825427084772,35.145426466428795],[129.1283092006871,35.145426466428795],[129.1283092006871,35.145471382193],[129.12825427084772,35.145471382193],[129.12825427084772,35.145426466428795]]]}},{"type":"Feature","properties":{"kind":"cable","name":"광안대교","hb":38.1,"h":40.6},"geometry":{"type":"Polygon","coordinates":[[[129.12807329917703,35.14554346878362],[129.12812822909538,35.14554346878362],[129.12812822909538,35.14558838454783],[129.12807329917703,35.14558838454783],[129.12807329917703,35.14554346878362]]]}},{"type":"Feature","properties":{"kind":"cable","name":"광안대교","hb":38.5,"h":41},"geometry":{"type":"Polygon","coordinates":[[[129.12820076465584,35.14537113143098],[129.1282556944579,35.14537113143098],[129.1282556944579,35.145416047195184],[129.12820076465584,35.145416047195184],[129.12820076465584,35.14537113143098]]]}},{"type":"Feature","properties":{"kind":"cable","name":"광안대교","hb":38.5,"h":41},"geometry":{"type":"Polygon","coordinates":[[[129.12801979315552,35.145488133834746],[129.12807472303652,35.145488133834746],[129.12807472303652,35.14553304959895],[129.12801979315552,35.14553304959895],[129.12801979315552,35.145488133834746]]]}},{"type":"Feature","properties":{"kind":"cable","name":"광안대교","hb":39.1,"h":41.6},"geometry":{"type":"Polygon","coordinates":[[[129.12814725846397,35.145315796433174],[129.12820218822867,35.145315796433174],[129.12820218822867,35.14536071219738],[129.12814725846397,35.14536071219738],[129.12814725846397,35.145315796433174]]]}},{"type":"Feature","properties":{"kind":"cable","name":"광안대교","hb":39.1,"h":41.6},"geometry":{"type":"Polygon","coordinates":[[[129.127966287134,35.14543279888587],[129.12802121697766,35.14543279888587],[129.12802121697766,35.14547771465008],[129.127966287134,35.14547771465008],[129.127966287134,35.14543279888587]]]}},{"type":"Feature","properties":{"kind":"cable","name":"광안대교","hb":39.8,"h":42.3},"geometry":{"type":"Polygon","coordinates":[[[129.1280937522721,35.14526046143536],[129.12814868199945,35.14526046143536],[129.12814868199945,35.14530537719957],[129.1280937522721,35.14530537719957],[129.1280937522721,35.14526046143536]]]}},{"type":"Feature","properties":{"kind":"cable","name":"광안대교","hb":39.8,"h":42.3},"geometry":{"type":"Polygon","coordinates":[[[129.12791278111249,35.145377463937],[129.1279677109188,35.145377463937],[129.1279677109188,35.14542237970121],[129.12791278111249,35.14542237970121],[129.12791278111249,35.145377463937]]]}},{"type":"Feature","properties":{"kind":"cable","name":"광안대교","hb":40.6,"h":43.1},"geometry":{"type":"Polygon","coordinates":[[[129.12804024608022,35.14520512643755],[129.12809517577023,35.14520512643755],[129.12809517577023,35.14525004220176],[129.12804024608022,35.14525004220176],[129.12804024608022,35.14520512643755]]]}},{"type":"Feature","properties":{"kind":"cable","name":"광안대교","hb":40.6,"h":43.1},"geometry":{"type":"Polygon","coordinates":[[[129.12785927509103,35.145322128988134],[129.12791420486,35.145322128988134],[129.12791420486,35.14536704475234],[129.12785927509103,35.14536704475234],[129.12785927509103,35.145322128988134]]]}},{"type":"Feature","properties":{"kind":"cable","name":"광안대교","hb":41.6,"h":44.1},"geometry":{"type":"Polygon","coordinates":[[[129.12798673988834,35.145149791439714],[129.128041669541,35.145149791439714],[129.128041669541,35.14519470720392],[129.12798673988834,35.14519470720392],[129.12798673988834,35.145149791439714]]]}},{"type":"Feature","properties":{"kind":"cable","name":"광안대교","hb":41.6,"h":44.1},"geometry":{"type":"Polygon","coordinates":[[[129.1278057690695,35.14526679403928],[129.12786069880113,35.14526679403928],[129.12786069880113,35.14531170980349],[129.1278057690695,35.14531170980349],[129.1278057690695,35.14526679403928]]]}},{"type":"Feature","properties":{"kind":"cable","name":"광안대교","hb":42.6,"h":45.1},"geometry":{"type":"Polygon","coordinates":[[[129.12793323369644,35.145094456441896],[129.12798816331176,35.145094456441896],[129.12798816331176,35.1451393722061],[129.12793323369644,35.1451393722061],[129.12793323369644,35.145094456441896]]]}},{"type":"Feature","properties":{"kind":"cable","name":"광안대교","hb":42.6,"h":45.1},"geometry":{"type":"Polygon","coordinates":[[[129.12775226304802,35.14521145909042],[129.1278071927423,35.14521145909042],[129.1278071927423,35.145256374854625],[129.12775226304802,35.145256374854625],[129.12775226304802,35.14521145909042]]]}},{"type":"Feature","properties":{"kind":"cable","name":"광안대교","hb":43.8,"h":46.3},"geometry":{"type":"Polygon","coordinates":[[[129.12787972750456,35.145039121444086],[129.12793465708253,35.145039121444086],[129.12793465708253,35.14508403720829],[129.12787972750456,35.14508403720829],[129.12787972750456,35.145039121444086]]]}},{"type":"Feature","properties":{"kind":"cable","name":"광안대교","hb":43.8,"h":46.3},"geometry":{"type":"Polygon","coordinates":[[[129.1276987570265,35.14515612414155],[129.12775368668343,35.14515612414155],[129.12775368668343,35.14520103990576],[129.1276987570265,35.14520103990576],[129.1276987570265,35.14515612414155]]]}},{"type":"Feature","properties":{"kind":"cable","name":"광안대교","hb":45.2,"h":47.7},"geometry":{"type":"Polygon","coordinates":[[[129.1278262213127,35.14498378644629],[129.1278811508533,35.14498378644629],[129.1278811508533,35.145028702210496],[129.1278262213127,35.145028702210496],[129.1278262213127,35.14498378644629]]]}},{"type":"Feature","properties":{"kind":"cable","name":"광안대교","hb":45.2,"h":47.7},"geometry":{"type":"Polygon","coordinates":[[[129.127645251005,35.14510078919267],[129.12770018062457,35.14510078919267],[129.12770018062457,35.145145704956875],[129.127645251005,35.145145704956875],[129.127645251005,35.14510078919267]]]}},{"type":"Feature","properties":{"kind":"cable","name":"광안대교","hb":46.6,"h":49.1},"geometry":{"type":"Polygon","coordinates":[[[129.1277727151208,35.14492845144848],[129.1278276446241,35.14492845144848],[129.1278276446241,35.144973367212685],[129.1277727151208,35.144973367212685],[129.1277727151208,35.14492845144848]]]}},{"type":"Feature","properties":{"kind":"cable","name":"광안대교","hb":46.6,"h":49.1},"geometry":{"type":"Polygon","coordinates":[[[129.12759174498348,35.1450454542438],[129.1276466745657,35.1450454542438],[129.1276466745657,35.145090370008006],[129.12759174498348,35.145090370008006],[129.12759174498348,35.1450454542438]]]}},{"type":"Feature","properties":{"kind":"cable","name":"광안대교","hb":48.2,"h":50.7},"geometry":{"type":"Polygon","coordinates":[[[129.12771920892897,35.144873116450654],[129.1277741383949,35.144873116450654],[129.1277741383949,35.14491803221486],[129.12771920892897,35.14491803221486],[129.12771920892897,35.144873116450654]]]}},{"type":"Feature","properties":{"kind":"cable","name":"광안대교","hb":48.2,"h":50.7},"geometry":{"type":"Polygon","coordinates":[[[129.127538238962,35.14499011929493],[129.12759316850688,35.14499011929493],[129.12759316850688,35.14503503505914],[129.127538238962,35.14503503505914],[129.127538238962,35.14499011929493]]]}},{"type":"Feature","properties":{"kind":"cable","name":"광안대교","hb":49.9,"h":52.4},"geometry":{"type":"Polygon","coordinates":[[[129.12766570273706,35.14481778145282],[129.12772063216565,35.14481778145282],[129.12772063216565,35.14486269721703],[129.12766570273706,35.14486269721703],[129.12766570273706,35.14481778145282]]]}},{"type":"Feature","properties":{"kind":"cable","name":"광안대교","hb":49.9,"h":52.4},"geometry":{"type":"Polygon","coordinates":[[[129.1274847329405,35.144934784346084],[129.12753966244804,35.144934784346084],[129.12753966244804,35.14497970011029],[129.1274847329405,35.14497970011029],[129.1274847329405,35.144934784346084]]]}},{"type":"Feature","properties":{"kind":"cable","name":"광안대교","hb":51.8,"h":54.3},"geometry":{"type":"Polygon","coordinates":[[[129.1276121965452,35.14476244645501],[129.12766712593643,35.14476244645501],[129.12766712593643,35.14480736221922],[129.1276121965452,35.14480736221922],[129.1276121965452,35.14476244645501]]]}},{"type":"Feature","properties":{"kind":"cable","name":"광안대교","hb":51.8,"h":54.3},"geometry":{"type":"Polygon","coordinates":[[[129.127431226919,35.144879449397216],[129.12748615638918,35.144879449397216],[129.12748615638918,35.14492436516142],[129.127431226919,35.14492436516142],[129.127431226919,35.144879449397216]]]}},{"type":"Feature","properties":{"kind":"cable","name":"광안대교","hb":53.8,"h":56.3},"geometry":{"type":"Polygon","coordinates":[[[129.1275586903533,35.144707111457194],[129.1276136197072,35.144707111457194],[129.1276136197072,35.1447520272214],[129.1275586903533,35.1447520272214],[129.1275586903533,35.144707111457194]]]}},{"type":"Feature","properties":{"kind":"cable","name":"광안대교","hb":53.8,"h":56.3},"geometry":{"type":"Polygon","coordinates":[[[129.12737772089747,35.144824114448355],[129.12743265033032,35.144824114448355],[129.12743265033032,35.14486903021256],[129.12737772089747,35.14486903021256],[129.12737772089747,35.144824114448355]]]}},{"type":"Feature","properties":{"kind":"cable","name":"광안대교","hb":55.8,"h":58.3},"geometry":{"type":"Polygon","coordinates":[[[129.12750518416144,35.14465177645939],[129.12756011347798,35.14465177645939],[129.12756011347798,35.1446966922236],[129.12750518416144,35.1446966922236],[129.12750518416144,35.14465177645939]]]}},{"type":"Feature","properties":{"kind":"cable","name":"광안대교","hb":55.8,"h":58.3},"geometry":{"type":"Polygon","coordinates":[[[129.12732421487596,35.144768779499465],[129.12737914427146,35.144768779499465],[129.12737914427146,35.14481369526367],[129.12732421487596,35.14481369526367],[129.12732421487596,35.144768779499465]]]}},{"type":"Feature","properties":{"kind":"cable","name":"광안대교","hb":58.1,"h":60.6},"geometry":{"type":"Polygon","coordinates":[[[129.1274516779696,35.14459644146158],[129.1275066072488,35.14459644146158],[129.1275066072488,35.14464135722579],[129.1274516779696,35.14464135722579],[129.1274516779696,35.14459644146158]]]}},{"type":"Feature","properties":{"kind":"cable","name":"광안대교","hb":58.1,"h":60.6},"geometry":{"type":"Polygon","coordinates":[[[129.12727070885447,35.1447134445506],[129.12732563821262,35.1447134445506],[129.12732563821262,35.1447583603148],[129.12727070885447,35.1447583603148],[129.12727070885447,35.1447134445506]]]}},{"type":"Feature","properties":{"kind":"cable","name":"광안대교","hb":60.4,"h":62.9},"geometry":{"type":"Polygon","coordinates":[[[129.1273981717777,35.14454110646376],[129.12745310101957,35.14454110646376],[129.12745310101957,35.14458602222797],[129.1273981717777,35.14458602222797],[129.1273981717777,35.14454110646376]]]}},{"type":"Feature","properties":{"kind":"cable","name":"광안대교","hb":60.4,"h":62.9},"geometry":{"type":"Polygon","coordinates":[[[129.12721720283295,35.144658109601735],[129.12727213215376,35.144658109601735],[129.12727213215376,35.14470302536594],[129.12721720283295,35.14470302536594],[129.12721720283295,35.144658109601735]]]}},{"type":"Feature","properties":{"kind":"cable","name":"광안대교","hb":62.9,"h":65.4},"geometry":{"type":"Polygon","coordinates":[[[129.1273446655858,35.14448577146594],[129.12739959479032,35.14448577146594],[129.12739959479032,35.144530687230144],[129.1273446655858,35.144530687230144],[129.1273446655858,35.14448577146594]]]}},{"type":"Feature","properties":{"kind":"cable","name":"광안대교","hb":62.9,"h":65.4},"geometry":{"type":"Polygon","coordinates":[[[129.12716369681146,35.14460277465288],[129.12721862609493,35.14460277465288],[129.12721862609493,35.14464769041709],[129.12716369681146,35.14464769041709],[129.12716369681146,35.14460277465288]]]}},{"type":"Feature","properties":{"kind":"cable","name":"광안대교","hb":65.5,"h":68},"geometry":{"type":"Polygon","coordinates":[[[129.12729115939393,35.14443043646811],[129.1273460885611,35.14443043646811],[129.1273460885611,35.14447535223232],[129.12729115939393,35.14447535223232],[129.12729115939393,35.14443043646811]]]}},{"type":"Feature","properties":{"kind":"cable","name":"광안대교","hb":65.5,"h":68},"geometry":{"type":"Polygon","coordinates":[[[129.12711019078995,35.14454743970401],[129.12716512003607,35.14454743970401],[129.12716512003607,35.14459235546822],[129.12711019078995,35.14459235546822],[129.12711019078995,35.14454743970401]]]}},{"type":"Feature","properties":{"kind":"cable","name":"광안대교","hb":68.2,"h":70.7},"geometry":{"type":"Polygon","coordinates":[[[129.1272376532021,35.14437510147032],[129.1272925823319,35.14437510147032],[129.1272925823319,35.14442001723452],[129.1272376532021,35.14442001723452],[129.1272376532021,35.14437510147032]]]}},{"type":"Feature","properties":{"kind":"cable","name":"광안대교","hb":68.2,"h":70.7},"geometry":{"type":"Polygon","coordinates":[[[129.1270566847684,35.14449210475513],[129.12711161397718,35.14449210475513],[129.12711161397718,35.14453702051934],[129.1270566847684,35.14453702051934],[129.1270566847684,35.14449210475513]]]}},{"type":"Feature","properties":{"kind":"cable","name":"광안대교","hb":71.1,"h":73.6},"geometry":{"type":"Polygon","coordinates":[[[129.1271841470102,35.144319766472506],[129.12723907610268,35.144319766472506],[129.12723907610268,35.14436468223671],[129.1271841470102,35.14436468223671],[129.1271841470102,35.144319766472506]]]}},{"type":"Feature","properties":{"kind":"cable","name":"광안대교","hb":71.1,"h":73.6},"geometry":{"type":"Polygon","coordinates":[[[129.1270031787469,35.14443676980626],[129.12705810791832,35.14443676980626],[129.12705810791832,35.14448168557047],[129.1270031787469,35.14448168557047],[129.1270031787469,35.14443676980626]]]}},{"type":"Feature","properties":{"kind":"cable","name":"광안대교","hb":74.1,"h":76.6},"geometry":{"type":"Polygon","coordinates":[[[129.12713064081834,35.14426443147469],[129.12718556987346,35.14426443147469],[129.12718556987346,35.144309347238895],[129.12713064081834,35.144309347238895],[129.12713064081834,35.14426443147469]]]}},{"type":"Feature","properties":{"kind":"cable","name":"광안대교","hb":74.1,"h":76.6},"geometry":{"type":"Polygon","coordinates":[[[129.12694967272543,35.1443814348574],[129.1270046018595,35.1443814348574],[129.1270046018595,35.14442635062161],[129.12694967272543,35.14442635062161],[129.12694967272543,35.1443814348574]]]}},{"type":"Feature","properties":{"kind":"cable","name":"광안대교","hb":77.2,"h":79.7},"geometry":{"type":"Polygon","coordinates":[[[129.12707713462646,35.14420909647687],[129.12713206364424,35.14420909647687],[129.12713206364424,35.14425401224108],[129.12707713462646,35.14425401224108],[129.12707713462646,35.14420909647687]]]}},{"type":"Feature","properties":{"kind":"cable","name":"광안대교","hb":77.2,"h":79.7},"geometry":{"type":"Polygon","coordinates":[[[129.12689616670392,35.144326099908525],[129.12695109580065,35.144326099908525],[129.12695109580065,35.14437101567273],[129.12689616670392,35.14437101567273],[129.12689616670392,35.144326099908525]]]}},{"type":"Feature","properties":{"kind":"cable","name":"광안대교","hb":80.4,"h":82.9},"geometry":{"type":"Polygon","coordinates":[[[129.12702362843459,35.14415376147904],[129.12707855741502,35.14415376147904],[129.12707855741502,35.144198677243246],[129.12702362843459,35.144198677243246],[129.12702362843459,35.14415376147904]]]}},{"type":"Feature","properties":{"kind":"cable","name":"광안대교","hb":80.4,"h":82.9},"geometry":{"type":"Polygon","coordinates":[[[129.1268426606824,35.14427076495968],[129.1268975897418,35.14427076495968],[129.1268975897418,35.144315680723885],[129.1268426606824,35.144315680723885],[129.1268426606824,35.14427076495968]]]}},{"type":"Feature","properties":{"kind":"cable","name":"광안대교","hb":83.8,"h":86.3},"geometry":{"type":"Polygon","coordinates":[[[129.1269701222427,35.14409842648123],[129.1270250511858,35.14409842648123],[129.1270250511858,35.144143342245435],[129.1269701222427,35.144143342245435],[129.1269701222427,35.14409842648123]]]}},{"type":"Feature","properties":{"kind":"cable","name":"광안대교","hb":83.8,"h":86.3},"geometry":{"type":"Polygon","coordinates":[[[129.12678915466088,35.14421543001081],[129.12684408368293,35.14421543001081],[129.12684408368293,35.14426034577502],[129.12678915466088,35.14426034577502],[129.12678915466088,35.14421543001081]]]}},{"type":"Feature","properties":{"kind":"cable","name":"광안대교","hb":87.3,"h":89.8},"geometry":{"type":"Polygon","coordinates":[[[129.12691661605083,35.14404309148343],[129.12697154495658,35.14404309148343],[129.12697154495658,35.14408800724764],[129.12691661605083,35.14408800724764],[129.12691661605083,35.14404309148343]]]}},{"type":"Feature","properties":{"kind":"cable","name":"광안대교","hb":87.3,"h":89.8},"geometry":{"type":"Polygon","coordinates":[[[129.12673564863937,35.14416009506193],[129.12679057762406,35.14416009506193],[129.12679057762406,35.144205010826134],[129.12673564863937,35.144205010826134],[129.12673564863937,35.14416009506193]]]}},{"type":"Feature","properties":{"kind":"cable","name":"광안대교","hb":90.9,"h":93.4},"geometry":{"type":"Polygon","coordinates":[[[129.12686310985896,35.14398775648562],[129.12691803872735,35.14398775648562],[129.12691803872735,35.14403267224983],[129.12686310985896,35.14403267224983],[129.12686310985896,35.14398775648562]]]}},{"type":"Feature","properties":{"kind":"cable","name":"광안대교","hb":90.9,"h":93.4},"geometry":{"type":"Polygon","coordinates":[[[129.12668214261785,35.14410476011306],[129.1267370715652,35.14410476011306],[129.1267370715652,35.144149675877266],[129.12668214261785,35.144149675877266],[129.12668214261785,35.14410476011306]]]}},{"type":"Feature","properties":{"kind":"cable","name":"광안대교","hb":94.6,"h":97.1},"geometry":{"type":"Polygon","coordinates":[[[129.1268096036671,35.1439324214878],[129.12686453249816,35.1439324214878],[129.12686453249816,35.143977337252004],[129.1268096036671,35.143977337252004],[129.1268096036671,35.1439324214878]]]}},{"type":"Feature","properties":{"kind":"cable","name":"광안대교","hb":94.6,"h":97.1},"geometry":{"type":"Polygon","coordinates":[[[129.12662863659637,35.14404942516419],[129.12668356550637,35.14404942516419],[129.12668356550637,35.1440943409284],[129.12662863659637,35.1440943409284],[129.12662863659637,35.14404942516419]]]}},{"type":"Feature","properties":{"kind":"cable","name":"광안대교","hb":98.5,"h":101},"geometry":{"type":"Polygon","coordinates":[[[129.1267560974752,35.14387708648997],[129.1268110262689,35.14387708648997],[129.1268110262689,35.14392200225418],[129.1267560974752,35.14392200225418],[129.1267560974752,35.14387708648997]]]}},{"type":"Feature","properties":{"kind":"cable","name":"광안대교","hb":98.5,"h":101},"geometry":{"type":"Polygon","coordinates":[[[129.12657513057488,35.14399409021534],[129.12663005944754,35.14399409021534],[129.12663005944754,35.14403900597954],[129.12657513057488,35.14403900597954],[129.12657513057488,35.14399409021534]]]}},{"type":"Feature","properties":{"kind":"cable","name":"광안대교","hb":102.5,"h":105},"geometry":{"type":"Polygon","coordinates":[[[129.12670259128333,35.143821751492155],[129.1267575200397,35.143821751492155],[129.1267575200397,35.14386666725636],[129.12670259128333,35.14386666725636],[129.12670259128333,35.143821751492155]]]}},{"type":"Feature","properties":{"kind":"cable","name":"광안대교","hb":102.5,"h":105},"geometry":{"type":"Polygon","coordinates":[[[129.12652162455336,35.143938755266475],[129.12657655338867,35.143938755266475],[129.12657655338867,35.14398367103068],[129.12652162455336,35.14398367103068],[129.12652162455336,35.143938755266475]]]}},{"type":"Feature","properties":{"kind":"deck","name":"부산항대교","hb":0.5,"h":3.4},"geometry":{"type":"Polygon","coordinates":[[[129.08265366254662,35.10862693126299],[129.08177647944635,35.10858788712086],[129.08176335435311,35.10878522459488],[129.0826405374534,35.10882426873701],[129.08265366254662,35.10862693126299]]]}},{"type":"Feature","properties":{"kind":"deck","name":"부산항대교","hb":0.5,"h":6.2},"geometry":{"type":"Polygon","coordinates":[[[129.08177647944007,35.10858788712072],[129.08089929633977,35.1085488429786],[129.0808861712591,35.108746180452904],[129.0817633543594,35.108785224595024],[129.08177647944007,35.10858788712072]]]}},{"type":"Feature","properties":{"kind":"deck","name":"부산항대교","hb":2,"h":9},"geometry":{"type":"Polygon","coordinates":[[[129.0808992963335,35.108548842978465],[129.08002211323324,35.10850979883634],[129.08000898816508,35.10870713631091],[129.08088617126535,35.10874618045304],[129.0808992963335,35.108548842978465]]]}},{"type":"Feature","properties":{"kind":"deck","name":"부산항대교","hb":4.8,"h":11.8},"geometry":{"type":"Polygon","coordinates":[[[129.08000975553335,35.10850976668236],[129.07913274809775,35.108544227193846],[129.07914433842936,35.108741628976375],[129.08002134586496,35.10870716846489],[129.08000975553335,35.10850976668236]]]}},{"type":"Feature","properties":{"kind":"deck","name":"부산항대교","hb":7.6,"h":14.6},"geometry":{"type":"Polygon","coordinates":[[[129.07913150873955,35.10854428111423],[129.07825451896903,35.10858613335704],[129.07826858801704,35.10878342729881],[129.07914557778756,35.108741575055994],[129.07913150873955,35.10854428111423]]]}},{"type":"Feature","properties":{"kind":"deck","name":"부산항대교","hb":10.4,"h":17.4},"geometry":{"type":"Polygon","coordinates":[[[129.0782545189618,35.108586133357214],[129.07737752919132,35.10862798560004],[129.07739159825377,35.10882527954146],[129.07826858802426,35.10878342729864],[129.0782545189618,35.108586133357214]]]}},{"type":"Feature","properties":{"kind":"deck","name":"부산항대교","hb":13.2,"h":20.2},"geometry":{"type":"Polygon","coordinates":[[[129.07737590611416,35.108628072030974],[129.07649993807712,35.10867956588844],[129.0765172532939,35.10887668696799],[129.07739322133094,35.108825193110526],[129.07737590611416,35.108628072030974]]]}},{"type":"Feature","properties":{"kind":"deck","name":"부산항대교","hb":16,"h":23},"geometry":{"type":"Polygon","coordinates":[[[129.07647800881944,35.10868253225953],[129.07563482069102,35.10886308294026],[129.07569599442317,35.10905427127763],[129.07653918255158,35.1088737205969],[129.07647800881944,35.10868253225953]]]}},{"type":"Feature","properties":{"kind":"deck","name":"부산항대교","hb":18.8,"h":25.8},"geometry":{"type":"Polygon","coordinates":[[[129.07561072555467,35.10887056754823],[129.07482741041426,35.1091958991602],[129.07493677441911,35.10937211828163],[129.07572008955952,35.10904678666966],[129.07561072555467,35.10887056754823]]]}},{"type":"Feature","properties":{"kind":"deck","name":"부산항대교","hb":21.6,"h":28.6},"geometry":{"type":"Polygon","coordinates":[[[129.0748249664842,35.109196942953496],[129.07405132797956,35.10953663765513],[129.07416557984456,35.10971076918997],[129.0749392183492,35.10937107448833],[129.0748249664842,35.109196942953496]]]}},{"type":"Feature","properties":{"kind":"deck","name":"부산항대교","hb":24.4,"h":31.4},"geometry":{"type":"Polygon","coordinates":[[[129.0740497019637,35.10953736470224],[129.07328284094933,35.10988658098141],[129.07340034484605,35.11005925842203],[129.07416720586042,35.10971004214286],[129.0740497019637,35.10953736470224]]]}},{"type":"Feature","properties":{"kind":"deck","name":"부산항대교","hb":27.2,"h":34.2},"geometry":{"type":"Polygon","coordinates":[[[129.07330537825706,35.10987865050834],[129.07246986323995,35.11009344680937],[129.0725422925212,35.110281985196124],[129.07337780753832,35.110067188895094],[129.07330537825706,35.10987865050834]]]}},{"type":"Feature","properties":{"kind":"deck","name":"부산항대교","hb":30,"h":37},"geometry":{"type":"Polygon","coordinates":[[[129.0724943574574,35.110089367570104],[129.07162127218922,35.11015899640748],[129.07164471303557,35.110355693272766],[129.07251779830375,35.11028606443539],[129.0724943574574,35.110089367570104]]]}},{"type":"Feature","properties":{"kind":"deck","name":"부산항대교","hb":32.8,"h":39.8},"geometry":{"type":"Polygon","coordinates":[[[129.0716466257294,35.110159161530724],[129.07077576206643,35.11007823994981],[129.07074849583245,35.1102746065686],[129.0716193594954,35.11035552814952],[129.0716466257294,35.110159161530724]]]}},{"type":"Feature","properties":{"kind":"deck","name":"부산항대교","hb":35.6,"h":42.6},"geometry":{"type":"Polygon","coordinates":[[[129.07080008308105,35.11008261311826],[129.06996951122017,35.10985773623799],[129.06989360295694,35.11004535651988],[129.07072417481783,35.11027023340015],[129.07080008308105,35.11008261311826]]]}},{"type":"Feature","properties":{"kind":"deck","name":"부산항대교","hb":38.4,"h":45.4},"geometry":{"type":"Polygon","coordinates":[[[129.06999468100994,35.109867297978944],[129.06924724440307,35.1094925250682],[129.0691209965603,35.109661021868185],[129.06986843316716,35.11003579477893],[129.06999468100994,35.109867297978944]]]}},{"type":"Feature","properties":{"kind":"deck","name":"부산항대교","hb":41.2,"h":48.2},"geometry":{"type":"Polygon","coordinates":[[[129.0692667871997,35.10950472442914],[129.06862687318917,35.109013375225516],[129.06846153975314,35.109157473303625],[129.06910145376366,35.109648822507246],[129.0692667871997,35.10950472442914]]]}},{"type":"Feature","properties":{"kind":"deck","name":"부산항대교","hb":44,"h":51},"geometry":{"type":"Polygon","coordinates":[[[129.06863326633353,35.10901866886206],[129.068039798278,35.108488804726605],[129.06786167855324,35.10862231553162],[129.06845514660878,35.10915217966708],[129.06863326633353,35.10901866886206]]]}},{"type":"Feature","properties":{"kind":"deck","name":"부산항대교","hb":46.8,"h":53.8},"geometry":{"type":"Polygon","coordinates":[[[129.06803979376676,35.10848880121595],[129.06744629720853,35.10795895944815],[129.06726818650625,35.108092477274475],[129.06786168306448,35.108622319042276],[129.06803979376676,35.10848880121595]]]}},{"type":"Feature","properties":{"kind":"deck","name":"부산항대교","hb":49.6,"h":56.6},"geometry":{"type":"Polygon","coordinates":[[[129.0674462356597,35.10795890505779],[129.06685226758597,35.10742943331469],[129.06667427998136,35.10756305992173],[129.0672682480551,35.10809253166483],[129.0674462356597,35.10795890505779]]]}},{"type":"Feature","properties":{"kind":"deck","name":"부산항대교","hb":52.4,"h":59.4},"geometry":{"type":"Polygon","coordinates":[[[129.0668522667435,35.107429433079076],[129.06625829866977,35.10689996133598],[129.0660803127501,35.10703358841425],[129.06667428082383,35.10756306015735],[129.0668522667435,35.107429433079076]]]}},{"type":"Feature","properties":{"kind":"deck","name":"부산항대교","hb":53,"h":60},"geometry":{"type":"Polygon","coordinates":[[[129.06625829782735,35.10689996110037],[129.06566432975364,35.10637048935727],[129.06548634551882,35.106504116906756],[129.06608031359252,35.107033588649855],[129.06625829782735,35.10689996110037]]]}},{"type":"Feature","properties":{"kind":"deck","name":"부산항대교","hb":52.5,"h":59.5},"geometry":{"type":"Polygon","coordinates":[[[129.06566432891123,35.106370489121666],[129.0650703608375,35.105841017378566],[129.0648923782875,35.10597464539926],[129.06548634636124,35.10650411714236],[129.06566432891123,35.106370489121666]]]}},{"type":"Feature","properties":{"kind":"deck","name":"부산항대교","hb":49.7,"h":56.7},"geometry":{"type":"Polygon","coordinates":[[[129.0650703599951,35.105841017142964],[129.06447639192137,35.105311545399864],[129.06429841105617,35.10544517389176],[129.0648923791299,35.10597464563486],[129.0650703599951,35.105841017142964]]]}},{"type":"Feature","properties":{"kind":"deck","name":"부산항대교","hb":46.9,"h":53.9},"geometry":{"type":"Polygon","coordinates":[[[129.064476391079,35.10531154516427],[129.06388242300528,35.10478207342117],[129.0637044438248,35.104915702384254],[129.06429841189853,35.105445174127354],[129.064476391079,35.10531154516427]]]}},{"type":"Feature","properties":{"kind":"deck","name":"부산항대교","hb":44.1,"h":51.1},"geometry":{"type":"Polygon","coordinates":[[[129.06388242216292,35.10478207318558],[129.06328845408922,35.10425260144248],[129.06311047659347,35.10438623087674],[129.06370444466717,35.10491570261984],[129.06388242216292,35.10478207318558]]]}},{"type":"Feature","properties":{"kind":"deck","name":"부산항대교","hb":41.3,"h":48.3},"geometry":{"type":"Polygon","coordinates":[[[129.06328845324688,35.1042526012069],[129.06269448517315,35.1037231294638],[129.06251650936207,35.10385675936922],[129.0631104774358,35.10438623111232],[129.06328845324688,35.1042526012069]]]}},{"type":"Feature","properties":{"kind":"deck","name":"부산항대교","hb":38.5,"h":45.5},"geometry":{"type":"Polygon","coordinates":[[[129.06269448433085,35.10372312922822],[129.06210051625712,35.10319365748512],[129.06192254213065,35.1033272878617],[129.06251651020438,35.1038567596048],[129.06269448433085,35.10372312922822]]]}},{"type":"Feature","properties":{"kind":"deck","name":"부산항대교","hb":35.7,"h":42.7},"geometry":{"type":"Polygon","coordinates":[[[129.06210036146155,35.10319352027201],[129.06150518763374,35.102664975160806],[129.0613275230984,35.102798879963615],[129.06192269692622,35.103327425074816],[129.06210036146155,35.10319352027201]]]}},{"type":"Feature","properties":{"kind":"deck","name":"부산항대교","hb":32.9,"h":39.9},"geometry":{"type":"Polygon","coordinates":[[[129.0615035613267,35.10266355958958],[129.06089580436415,35.10214468472037],[129.0607213924429,35.10228142066563],[129.06132914940545,35.10280029553484],[129.0615035613267,35.10266355958958]]]}},{"type":"Feature","properties":{"kind":"deck","name":"부산항대교","hb":30.1,"h":37.1},"geometry":{"type":"Polygon","coordinates":[[[129.06089580424705,35.10214468509433],[129.06028805409233,35.101625807290326],[129.06011364240527,35.10176254248767],[129.06072139256,35.102281420291675],[129.06089580424705,35.10214468509433]]]}},{"type":"Feature","properties":{"kind":"deck","name":"부산항대교","hb":27.3,"h":34.3},"geometry":{"type":"Polygon","coordinates":[[[129.06028805555533,35.10162580901334],[129.0596803274941,35.10110692168491],[129.05950591288104,35.10124365343622],[129.06011364094226,35.10176254076465],[129.06028805555533,35.10162580901334]]]}},{"type":"Feature","properties":{"kind":"deck","name":"부산항대교","hb":24.5,"h":31.5},"geometry":{"type":"Polygon","coordinates":[[[129.05968032667332,35.101106921458054],[129.05907259861212,35.10058803412963],[129.05889818564063,35.10072476633465],[129.05950591370183,35.101243653663076],[129.05968032667332,35.101106921458054]]]}},{"type":"Feature","properties":{"kind":"deck","name":"부산항대교","hb":21.7,"h":28.7},"geometry":{"type":"Polygon","coordinates":[[[129.05907259779136,35.10058803390277],[129.05846486973013,35.100069146574334],[129.05829045840017,35.10020587923308],[129.0588981864614,35.10072476656151],[129.05907259779136,35.10058803390277]]]}},{"type":"Feature","properties":{"kind":"deck","name":"부산항대교","hb":18.9,"h":25.9},"geometry":{"type":"Polygon","coordinates":[[[129.05846486890937,35.10006914634749],[129.05785714084817,35.09955025901906],[129.05768273115973,35.0996869921315],[129.05829045922093,35.10020587945993],[129.05846486890937,35.10006914634749]]]}},{"type":"Feature","properties":{"kind":"deck","name":"부산항대교","hb":16.1,"h":23.1},"geometry":{"type":"Polygon","coordinates":[[[129.05785631982718,35.09954956530133],[129.05724248119617,35.099035603654606],[129.0570697135497,35.09917372420251],[129.05768355218072,35.09968768584923],[129.05785631982718,35.09954956530133]]]}},{"type":"Feature","properties":{"kind":"deck","name":"부산항대교","hb":13.3,"h":20.3},"geometry":{"type":"Polygon","coordinates":[[[129.05724101260546,35.0990343954742],[129.05661638873477,35.09852912772344],[129.05644655826973,35.098669664632155],[129.05707118214042,35.099174932382915],[129.05724101260546,35.0990343954742]]]}},{"type":"Feature","properties":{"kind":"deck","name":"부산항대교","hb":10.5,"h":17.5},"geometry":{"type":"Polygon","coordinates":[[[129.0566180063375,35.098530461800344],[129.0560054938654,35.098015774745164],[129.05583242819492,35.09815364350007],[129.056444940667,35.09866833055525],[129.0566180063375,35.098530461800344]]]}},{"type":"Feature","properties":{"kind":"deck","name":"부산항대교","hb":7.7,"h":14.7},"geometry":{"type":"Polygon","coordinates":[[[129.05601568298002,35.09802553171574],[129.0554904899778,35.097450916556596],[129.0552970460781,35.09756927137035],[129.0558222390803,35.09814388652949],[129.05601568298002,35.09802553171574]]]}},{"type":"Feature","properties":{"kind":"deck","name":"부산항대교","hb":4.9,"h":11.9},"geometry":{"type":"Polygon","coordinates":[[[129.05549305965056,35.09745383831502],[129.05499300657172,35.096863014731625],[129.0547944233265,35.09697552602853],[129.05529447640535,35.097566349611924],[129.05549305965056,35.09745383831502]]]}},{"type":"Feature","properties":{"kind":"deck","name":"부산항대교","hb":2.1,"h":9.1},"geometry":{"type":"Polygon","coordinates":[[[129.05497812544905,35.09684859783262],[129.05435211493258,35.09634806979213],[129.0541832939327,35.096489414887046],[129.05480930444918,35.096989942927536],[129.05497812544905,35.09684859783262]]]}},{"type":"Feature","properties":{"kind":"deck","name":"부산항대교","hb":0.5,"h":6.3},"geometry":{"type":"Polygon","coordinates":[[[129.05434513502064,35.096342908527376],[129.0536710619817,35.095882161223386],[129.05351620080572,35.09603382884781],[129.05419027384465,35.0964945761518],[129.05434513502064,35.096342908527376]]]}},{"type":"Feature","properties":{"kind":"deck","name":"부산항대교","hb":0.5,"h":3.5},"geometry":{"type":"Polygon","coordinates":[[[129.05366572462353,35.0958787171879],[129.0529623375257,35.095450515927105],[129.05281815106608,35.0956090716225],[129.0535215381639,35.096037272883294],[129.05366572462353,35.0958787171879]]]}},{"type":"Feature","properties":{"kind":"deck","name":"남항대교","hb":0.5,"h":3.4},"geometry":{"type":"Polygon","coordinates":[[[129.03966129456487,35.08318319562646],[129.03920816856655,35.082568570552276],[129.0390201794368,35.08266137929936],[129.0394733054351,35.083276004373545],[129.03966129456487,35.08318319562646]]]}},{"type":"Feature","properties":{"kind":"deck","name":"남항대교","hb":0.5,"h":6.2},"geometry":{"type":"Polygon","coordinates":[[[129.03919565420532,35.08255477672801],[129.03860838237924,35.08202247073735],[129.03844542197194,35.082142867132966],[129.03903269379802,35.082675173123626],[129.03919565420532,35.08255477672801]]]}},{"type":"Feature","properties":{"kind":"deck","name":"남항대교","hb":3,"h":9},"geometry":{"type":"Polygon","coordinates":[[[129.0385941293393,35.08201165379405],[129.03790264493725,35.08157328971299],[129.03776819060985,35.08171531999521],[129.0384596750119,35.08215368407627],[129.0385941293393,35.08201165379405]]]}},{"type":"Feature","properties":{"kind":"deck","name":"남항대교","hb":5.8,"h":11.8},"geometry":{"type":"Polygon","coordinates":[[[129.03788083633262,35.081562522997906],[129.037084627151,35.08126640403563],[129.03699379003285,35.08142996774802],[129.03778999921448,35.0817260867103],[129.03788083633262,35.081562522997906]]]}},{"type":"Feature","properties":{"kind":"deck","name":"남항대교","hb":8.6,"h":14.6},"geometry":{"type":"Polygon","coordinates":[[[129.03706818738388,35.08126154104907],[129.03622116489004,35.08107182776664],[129.03616320730612,35.08124511745216],[129.03701022979996,35.08143483073459],[129.03706818738388,35.08126154104907]]]}},{"type":"Feature","properties":{"kind":"deck","name":"남항대교","hb":11.4,"h":17.4},"geometry":{"type":"Polygon","coordinates":[[[129.03622116475995,35.081071827752595],[129.0353741422661,35.08088211447017],[129.03531618494236,35.081055404183786],[129.0361632074362,35.08124511746621],[129.03622116475995,35.081071827752595]]]}},{"type":"Feature","properties":{"kind":"deck","name":"남항대교","hb":14.2,"h":20.2},"geometry":{"type":"Polygon","coordinates":[[[129.03537414213602,35.08088211445613],[129.03452711964218,35.08069240117371],[129.0344691625786,35.0808656909154],[129.03531618507245,35.081055404197826],[129.03537414213602,35.08088211445613]]]}},{"type":"Feature","properties":{"kind":"deck","name":"남항대교","hb":17,"h":23},"geometry":{"type":"Polygon","coordinates":[[[129.03452711951212,35.080692401159666],[129.03368009701828,35.08050268787724],[129.03362214021482,35.08067597764702],[129.03446916270866,35.08086569092944],[129.03452711951212,35.080692401159666]]]}},{"type":"Feature","properties":{"kind":"deck","name":"남항대교","hb":19.8,"h":25.8},"geometry":{"type":"Polygon","coordinates":[[[129.0336800968882,35.0805026878632],[129.03283307439435,35.08031297458078],[129.03277511785106,35.080486264378635],[129.0336221403449,35.08067597766106],[129.0336800968882,35.0805026878632]]]}},{"type":"Feature","properties":{"kind":"deck","name":"남항대교","hb":22.6,"h":28.6},"geometry":{"type":"Polygon","coordinates":[[[129.03283307426426,35.08031297456674],[129.03198605177042,35.080123261284314],[129.0319280954873,35.08029655111025],[129.03277511798115,35.080486264392675],[129.03283307426426,35.08031297456674]]]}},{"type":"Feature","properties":{"kind":"deck","name":"남항대교","hb":25.4,"h":31.4},"geometry":{"type":"Polygon","coordinates":[[[129.03198605164036,35.08012326127027],[129.03113902914652,35.07993354798785],[129.03108107312352,35.08010683784187],[129.03192809561736,35.08029655112429],[129.03198605164036,35.08012326127027]]]}},{"type":"Feature","properties":{"kind":"deck","name":"남항대교","hb":23.1,"h":29.1},"geometry":{"type":"Polygon","coordinates":[[[129.03113902901643,35.07993354797381],[129.0302920065226,35.079743834691385],[129.03023405075976,35.079917124573484],[129.0310810732536,35.08010683785591],[129.03113902901643,35.07993354797381]]]}},{"type":"Feature","properties":{"kind":"deck","name":"남항대교","hb":20.3,"h":26.3},"geometry":{"type":"Polygon","coordinates":[[[129.03029200639253,35.079743834677345],[129.02944498389868,35.07955412139492],[129.02938702839597,35.0797274113051],[129.03023405088982,35.079917124587524],[129.03029200639253,35.079743834677345]]]}},{"type":"Feature","properties":{"kind":"deck","name":"남항대교","hb":17.5,"h":23.5},"geometry":{"type":"Polygon","coordinates":[[[129.0294449837686,35.07955412138088],[129.02859796127476,35.079364408098456],[129.02854000603222,35.07953769803672],[129.02938702852606,35.07972741131914],[129.0294449837686,35.07955412138088]]]}},{"type":"Feature","properties":{"kind":"deck","name":"남항대교","hb":14.7,"h":20.7},"geometry":{"type":"Polygon","coordinates":[[[129.0285979611447,35.079364408084416],[129.02775093865085,35.07917469480199],[129.02769298366843,35.07934798476833],[129.02854000616227,35.07953769805076],[129.0285979611447,35.079364408084416]]]}},{"type":"Feature","properties":{"kind":"deck","name":"남항대교","hb":11.9,"h":17.9},"geometry":{"type":"Polygon","coordinates":[[[129.0277509385208,35.07917469478795],[129.02690391602695,35.07898498150553],[129.02684596130464,35.07915827149995],[129.0276929837985,35.07934798478237],[129.0277509385208,35.07917469478795]]]}},{"type":"Feature","properties":{"kind":"deck","name":"남항대교","hb":9.1,"h":15.1},"geometry":{"type":"Polygon","coordinates":[[[129.0268963156796,35.07898351486951],[129.0260352461267,35.07884360729503],[129.02599249209908,35.07901983056148],[129.026853561652,35.079159738135964],[129.0268963156796,35.07898351486951]]]}},{"type":"Feature","properties":{"kind":"deck","name":"남항대교","hb":6.3,"h":12.3},"geometry":{"type":"Polygon","coordinates":[[[129.02601928109644,35.078841996646574],[129.02514481094107,35.078806670904704],[129.02513398697397,35.07898611546806],[129.02600845712934,35.07902144120993],[129.02601928109644,35.078841996646574]]]}},{"type":"Feature","properties":{"kind":"deck","name":"남항대교","hb":3.5,"h":9.5},"geometry":{"type":"Polygon","coordinates":[[[129.0251218267439,35.07880772015077],[129.02425602689442,35.07892262599569],[129.02429117132164,35.07909997206691],[129.02515697117113,35.078985066221996],[129.0251218267439,35.07880772015077]]]}},{"type":"Feature","properties":{"kind":"deck","name":"남항대교","hb":0.7,"h":6.7},"geometry":{"type":"Polygon","coordinates":[[[129.02423333434155,35.078927729103086],[129.0234186533117,35.07919060481716],[129.02349918284466,35.07935774467359],[129.0243138638745,35.079094868959515],[129.02423333434155,35.078927729103086]]]}},{"type":"Feature","properties":{"kind":"deck","name":"남항대교","hb":0.5,"h":3.9},"geometry":{"type":"Polygon","coordinates":[[[129.02339993238294,35.07919841468414],[129.02265980424121,35.07958433492354],[129.02277777563168,35.079735855045996],[129.0235179037734,35.0793499348066],[129.02339993238294,35.07919841468414]]]}},{"type":"Feature","properties":{"kind":"deck","name":"남항대교","hb":0.5,"h":3},"geometry":{"type":"Polygon","coordinates":[[[129.02265865227605,35.07958494380864],[129.0225330623396,35.07965224882388],[129.0226533376604,35.07980255117613],[129.02277892759685,35.079735246160894],[129.02265865227605,35.07958494380864]]]}},{"type":"Feature","properties":{"kind":"deck","name":"을숙도대교","hb":0.5,"h":3.4},"geometry":{"type":"Polygon","coordinates":[[[128.9215006600037,35.092770184644415],[128.92231203963632,35.093045345252285],[128.92240451962897,35.09286277596346],[128.92159313999633,35.09258761535559],[128.9215006600037,35.092770184644415]]]}},{"type":"Feature","properties":{"kind":"deck","name":"을숙도대교","hb":1.2,"h":6.2},"geometry":{"type":"Polygon","coordinates":[[[128.9223193080351,35.09304758889548],[128.92315003224064,35.09327932915403],[128.92322797543574,35.093092272578815],[128.9223972512302,35.092860532320266],[128.9223193080351,35.09304758889548]]]}},{"type":"Feature","properties":{"kind":"deck","name":"을숙도대교","hb":4,"h":9},"geometry":{"type":"Polygon","coordinates":[[[128.92316121192468,35.09328196344572],[128.9240154618152,35.09344724887088],[128.92407104564222,35.09325492371229],[128.9232167957517,35.093089638287125],[128.92316121192468,35.09328196344572]]]}},{"type":"Feature","properties":{"kind":"deck","name":"을숙도대교","hb":6.8,"h":11.8},"geometry":{"type":"Polygon","coordinates":[[[128.92402560894698,35.09344884061271],[128.9248941545875,35.093553796985596],[128.92492944415096,35.093358288343346],[128.92406089851045,35.09325333197046],[128.92402560894698,35.09344884061271]]]}},{"type":"Feature","properties":{"kind":"deck","name":"을숙도대교","hb":9.6,"h":14.6},"geometry":{"type":"Polygon","coordinates":[[[128.9249005282955,35.09355442606224],[128.9257750054603,35.09362149584091],[128.92579754760777,35.09342472904537],[128.92492307044296,35.0933576592667],[128.9249005282955,35.09355442606224]]]}},{"type":"Feature","properties":{"kind":"deck","name":"을숙도대교","hb":12.4,"h":17.4},"geometry":{"type":"Polygon","coordinates":[[[128.9257751478294,35.09362150669131],[128.92664972959648,35.093687729796315],[128.92667198700576,35.09349094129996],[128.92579740523868,35.09342471819496],[128.9257751478294,35.09362150669131]]]}},{"type":"Feature","properties":{"kind":"deck","name":"을숙도대교","hb":15.2,"h":20.2},"geometry":{"type":"Polygon","coordinates":[[[128.92664969861747,35.09368772744799],[128.9275242620573,35.09375413498385],[128.9275465814246,35.09355735118414],[128.92667201798477,35.093490943648284],[128.92664969861747,35.09368772744799]]]}},{"type":"Feature","properties":{"kind":"deck","name":"을숙도대교","hb":17,"h":22},"geometry":{"type":"Polygon","coordinates":[[[128.92752426203919,35.09375413498316],[128.928398825479,35.09382054251902],[128.92842114488252,35.09362375872069],[128.9275465814427,35.09355735118483],[128.92752426203919,35.09375413498316]]]}},{"type":"Feature","properties":{"kind":"deck","name":"을숙도대교","hb":17,"h":22},"geometry":{"type":"Polygon","coordinates":[[[128.9283988254609,35.09382054251834],[128.92927338890075,35.0938869500542],[128.92929570834048,35.09369016625723],[128.92842114490062,35.09362375872137],[128.9283988254609,35.09382054251834]]]}},{"type":"Feature","properties":{"kind":"deck","name":"을숙도대교","hb":17,"h":22},"geometry":{"type":"Polygon","coordinates":[[[128.92927338888265,35.093886950053516],[128.93014795232247,35.09395335758937],[128.9301702717984,35.09375657379377],[128.92929570835858,35.093690166257915],[128.92927338888265,35.093886950053516]]]}},{"type":"Feature","properties":{"kind":"deck","name":"을숙도대교","hb":17,"h":22},"geometry":{"type":"Polygon","coordinates":[[[128.93014795230437,35.09395335758868],[128.9310225157442,35.09401976512454],[128.93104483525633,35.09382298133032],[128.9301702718165,35.09375657379446],[128.93014795230437,35.09395335758868]]]}},{"type":"Feature","properties":{"kind":"deck","name":"을숙도대교","hb":17,"h":22},"geometry":{"type":"Polygon","coordinates":[[[128.9310225157261,35.09401976512386],[128.93189707916594,35.094086172659715],[128.93191939871423,35.093889388866856],[128.9310448352744,35.093822981331],[128.9310225157261,35.09401976512386]]]}},{"type":"Feature","properties":{"kind":"deck","name":"을숙도대교","hb":17,"h":22},"geometry":{"type":"Polygon","coordinates":[[[128.93189707914783,35.09408617265903],[128.93277164258765,35.094152580194894],[128.93279396217216,35.0939557964034],[128.93191939873233,35.09388938886754],[128.93189707914783,35.09408617265903]]]}},{"type":"Feature","properties":{"kind":"deck","name":"을숙도대교","hb":17,"h":22},"geometry":{"type":"Polygon","coordinates":[[[128.93277164256955,35.09415258019421],[128.93364620600937,35.094218987730066],[128.93366852563008,35.094022203939936],[128.93279396219026,35.09395579640408],[128.93277164256955,35.09415258019421]]]}},{"type":"Feature","properties":{"kind":"deck","name":"을숙도대교","hb":17,"h":22},"geometry":{"type":"Polygon","coordinates":[[[128.93364620599127,35.09421898772938],[128.9345207694311,35.09428539526524],[128.934543089088,35.09408861147649],[128.9336685256482,35.094022203940625],[128.93364620599127,35.09421898772938]]]}},{"type":"Feature","properties":{"kind":"deck","name":"을숙도대교","hb":17,"h":22},"geometry":{"type":"Polygon","coordinates":[[[128.93452212453025,35.09428549186686],[128.93539749327914,35.094343832122405],[128.93541710273774,35.094146855130404],[128.93454173398885,35.09408851487486],[128.93452212453025,35.09428549186686]]]}},{"type":"Feature","properties":{"kind":"deck","name":"을숙도대교","hb":17,"h":22},"geometry":{"type":"Polygon","coordinates":[[[128.93540479601563,35.09434413709994],[128.93628287555217,35.094359024486046],[128.9362878795378,35.09416143753898],[128.93540980000125,35.09414655015287],[128.93540479601563,35.09434413709994]]]}},{"type":"Feature","properties":{"kind":"deck","name":"을숙도대교","hb":17,"h":22},"geometry":{"type":"Polygon","coordinates":[[[128.93629179096925,35.094358906261945],[128.93716835049494,35.0943207654379],[128.9371555236464,35.094123414939034],[128.9362789641207,35.09416155576308],[128.93629179096925,35.094358906261945]]]}},{"type":"Feature","properties":{"kind":"deck","name":"을숙도대교","hb":17,"h":22},"geometry":{"type":"Polygon","coordinates":[[[128.93718046407471,35.09431973519622],[128.93804793151557,35.09420954675345],[128.93801087750748,35.094014256737935],[128.93714341006662,35.09412444518071],[128.93718046407471,35.09431973519622]]]}},{"type":"Feature","properties":{"kind":"deck","name":"을숙도대교","hb":17,"h":22},"geometry":{"type":"Polygon","coordinates":[[[128.9380613190494,35.09420720370593],[128.9389079317483,35.09401740169346],[128.93884410267253,35.09382679777299],[128.93799748997364,35.094016599785455],[128.9380613190494,35.09420720370593]]]}},{"type":"Feature","properties":{"kind":"deck","name":"을숙도대교","hb":17,"h":22},"geometry":{"type":"Polygon","coordinates":[[[128.93891936938675,35.09401432841729],[128.93973866773413,35.093756507194804],[128.93965196338146,35.09357204982668],[128.93883266503408,35.09382987104917],[128.93891936938675,35.09401432841729]]]}},{"type":"Feature","properties":{"kind":"deck","name":"을숙도대교","hb":17,"h":22},"geometry":{"type":"Polygon","coordinates":[[[128.93974968060098,35.0937525149384],[128.94053331354746,35.093429279258274],[128.9404245834611,35.09325280640296],[128.93964095051462,35.093576042083086],[128.93974968060098,35.0937525149384]]]}},{"type":"Feature","properties":{"kind":"deck","name":"을숙도대교","hb":17,"h":22},"geometry":{"type":"Polygon","coordinates":[[[128.94054367029656,35.09342446910559],[128.94128493984846,35.093039467622006],[128.9411554962639,35.092872615072054],[128.940414226712,35.09325761655564],[128.94054367029656,35.09342446910559]]]}},{"type":"Feature","properties":{"kind":"deck","name":"을숙도대교","hb":17,"h":22},"geometry":{"type":"Polygon","coordinates":[[[128.9412946127216,35.0930338810163],[128.94198600752188,35.09259148634502],[128.941837218191,35.09243580700649],[128.94114582339074,35.09287820167776],[128.9412946127216,35.0930338810163]]]}},{"type":"Feature","properties":{"kind":"deck","name":"을숙도대교","hb":17,"h":22},"geometry":{"type":"Polygon","coordinates":[[[128.94199355357986,35.09258623563428],[128.94263863375483,35.09209871742551],[128.942474752308,35.09195353950846],[128.94182967213303,35.09244105771723],[128.94199355357986,35.09258623563428]]]}},{"type":"Feature","properties":{"kind":"deck","name":"을숙도대교","hb":17,"h":22},"geometry":{"type":"Polygon","coordinates":[[[128.9426424905725,35.09209566964654],[128.9432605333704,35.09158515927321],[128.9430889382882,35.091446076914096],[128.94247089549032,35.09195658728743],[128.9426424905725,35.09209566964654]]]}},{"type":"Feature","properties":{"kind":"deck","name":"을숙도대교","hb":17,"h":22},"geometry":{"type":"Polygon","coordinates":[[[128.94326210624212,35.09158383508267],[128.94386843309678,35.091063914075086],[128.94369369227115,35.090927480097044],[128.9430873654165,35.09144740110463],[128.94326210624212,35.09158383508267]]]}},{"type":"Feature","properties":{"kind":"deck","name":"을숙도대교","hb":17,"h":22},"geometry":{"type":"Polygon","coordinates":[[[128.94386843227431,35.09106391430272],[128.944474759129,35.090543993295135],[128.94430001994832,35.09040755886182],[128.94369369309362,35.09092747986941],[128.94386843227431,35.09106391430272]]]}},{"type":"Feature","properties":{"kind":"deck","name":"을숙도대교","hb":17,"h":22},"geometry":{"type":"Polygon","coordinates":[[[128.94447475830654,35.090543993522765],[128.9450810851612,35.09002407251518],[128.94490634762545,35.0898876376266],[128.94430002077078,35.09040755863419],[128.94447475830654,35.090543993522765]]]}},{"type":"Feature","properties":{"kind":"deck","name":"을숙도대교","hb":17,"h":22},"geometry":{"type":"Polygon","coordinates":[[[128.94508108433874,35.09002407274281],[128.94568741119343,35.08950415173522],[128.9455126753026,35.089367716391386],[128.94490634844792,35.089887637398974],[128.94508108433874,35.09002407274281]]]}},{"type":"Feature","properties":{"kind":"deck","name":"을숙도대교","hb":17,"h":22},"geometry":{"type":"Polygon","coordinates":[[[128.94568741037102,35.08950415196284],[128.9462937372257,35.088984230955255],[128.94611900297969,35.08884779515618],[128.94551267612502,35.089367716163764],[128.94568741037102,35.08950415196284]]]}},{"type":"Feature","properties":{"kind":"deck","name":"을숙도대교","hb":17,"h":22},"geometry":{"type":"Polygon","coordinates":[[[128.94629373640328,35.08898423118288],[128.94690006325797,35.08846431017529],[128.9467253306568,35.08832787392097],[128.9461190038021,35.088847794928554],[128.94629373640328,35.08898423118288]]]}},{"type":"Feature","properties":{"kind":"deck","name":"을숙도대교","hb":17,"h":22},"geometry":{"type":"Polygon","coordinates":[[[128.94689990358313,35.08846444635889],[128.9475074289258,35.08794547915584],[128.9473330156743,35.087808770534316],[128.94672549033163,35.088327737737366],[128.94689990358313,35.08846444635889]]]}},{"type":"Feature","properties":{"kind":"deck","name":"을숙도대교","hb":17,"h":22},"geometry":{"type":"Polygon","coordinates":[[[128.94750502579436,35.08794747414645],[128.94813024886608,35.08744282871665],[128.94796064187747,35.0873021301139],[128.94733541880575,35.087806775543704],[128.94750502579436,35.08794747414645]]]}},{"type":"Feature","properties":{"kind":"deck","name":"을숙도대교","hb":17,"h":22},"geometry":{"type":"Polygon","coordinates":[[[128.94812322122624,35.08744807038874],[128.94879408788384,35.08698588778094],[128.9486385361749,35.08683470583401],[128.9479676695173,35.087296888441806],[128.94812322122624,35.08744807038874]]]}},{"type":"Feature","properties":{"kind":"deck","name":"을숙도대교","hb":17,"h":22},"geometry":{"type":"Polygon","coordinates":[[[128.94878268819897,35.08699284544149],[128.9495160828722,35.086597981798086],[128.949383330533,35.08643288453005],[128.94864993585978,35.086827748173455],[128.94878268819897,35.08699284544149]]]}},{"type":"Feature","properties":{"kind":"deck","name":"을숙도대교","hb":14.6,"h":19.6},"geometry":{"type":"Polygon","coordinates":[[[128.94950380338236,35.08660377800117],[128.95028743936956,35.086282475043724],[128.95017924601007,35.08610578536952],[128.94939561002286,35.086427088326964],[128.94950380338236,35.08660377800117]]]}},{"type":"Feature","properties":{"kind":"deck","name":"을숙도대교","hb":11.8,"h":16.8},"geometry":{"type":"Polygon","coordinates":[[[128.95027267955615,35.08628755511377],[128.95110252950462,35.08605359031098],[128.95102385577195,35.085866740496684],[128.95019400582348,35.08610070529947],[128.95027267955615,35.08628755511377]]]}},{"type":"Feature","properties":{"kind":"deck","name":"을숙도대교","hb":9,"h":14},"geometry":{"type":"Polygon","coordinates":[[[128.95108563420746,35.08605725873154],[128.95194720117888,35.08592391619781],[128.95190231804054,35.085729729542386],[128.95104075106912,35.08586307207612],[128.95108563420746,35.08605725873154]]]}},{"type":"Feature","properties":{"kind":"deck","name":"을숙도대교","hb":6.2,"h":11.2},"geometry":{"type":"Polygon","coordinates":[[[128.95193446041645,35.08592531818919],[128.95280969331523,35.085867597336346],[128.95279029170175,35.08567060669816],[128.95191505880297,35.085728327551],[128.95193446041645,35.08592531818919]]]}},{"type":"Feature","properties":{"kind":"deck","name":"을숙도대교","hb":3.4,"h":8.4},"geometry":{"type":"Polygon","coordinates":[[[128.95280358875712,35.08586787286951],[128.95368141544938,35.0858464712343],[128.95367422295212,35.08564892952979],[128.95279639625986,35.085670331165],[128.95280358875712,35.08586787286951]]]}},{"type":"Feature","properties":{"kind":"deck","name":"을숙도대교","hb":0.6,"h":5.6},"geometry":{"type":"Polygon","coordinates":[[[128.953680629406,35.08584648830239],[128.9545586251236,35.085829764151946],[128.95455300471312,35.08563218831126],[128.9536750089955,35.0856489124617],[128.953680629406,35.08584648830239]]]}},{"type":"Feature","properties":{"kind":"deck","name":"을숙도대교","hb":0.5,"h":3.1},"geometry":{"type":"Polygon","coordinates":[[[128.95455862512262,35.08582976415195],[128.95523461020426,35.08581688792035],[128.95522898979576,35.08561931207965],[128.9545530047141,35.08563218831125],[128.95455862512262,35.08582976415195]]]}},{"type":"Feature","properties":{"kind":"deck","name":"영도대교","hb":0.5,"h":3.4},"geometry":{"type":"Polygon","coordinates":[[[129.036692237402,35.09456532428065],[129.0364589262635,35.095258159126914],[129.03664945145948,35.095301110565615],[129.036882762598,35.09460827571935],[129.036692237402,35.09456532428065]]]}},{"type":"Feature","properties":{"kind":"deck","name":"영도대교","hb":1.4,"h":5.4},"geometry":{"type":"Polygon","coordinates":[[[129.03645902340782,35.09525787034083],[129.03622257445645,35.095949988243625],[129.0364129053638,35.09599351725449],[129.03664935431516,35.0953013993517],[129.03645902340782,35.09525787034083]]]}},{"type":"Feature","properties":{"kind":"deck","name":"영도대교","hb":0.5,"h":3},"geometry":{"type":"Polygon","coordinates":[[[129.03622276736223,35.095949429307105],[129.0360479274521,35.09644737655805],[129.03623787254787,35.096492023441954],[129.036412712458,35.09599407619101],[129.03622276736223,35.095949429307105]]]}},{"type":"Feature","properties":{"kind":"deck","name":"부산대교","hb":0.5,"h":3.4},"geometry":{"type":"Polygon","coordinates":[[[129.0379880277076,35.09812883172633],[129.03820131379334,35.09743544112813],[129.03800965837812,35.097395977675475],[129.03779637229238,35.098089368273676],[129.0379880277076,35.09812883172633]]]}},{"type":"Feature","properties":{"kind":"deck","name":"부산대교","hb":2.2,"h":6.2},"geometry":{"type":"Polygon","coordinates":[[[129.0381953445509,35.09744934308853],[129.03856074826865,35.09679583033599],[129.0383810313383,35.09672856296254],[129.03801562762055,35.097382075715075],[129.0381953445509,35.09744934308853]]]}},{"type":"Feature","properties":{"kind":"deck","name":"부산대교","hb":5,"h":9},"geometry":{"type":"Polygon","coordinates":[[[129.0385607474238,35.096795830558925],[129.03892615114157,35.09614231780639],[129.03874643590095,35.09607504998707],[129.03838103218317,35.09672856273961],[129.0385607474238,35.096795830558925]]]}},{"type":"Feature","properties":{"kind":"deck","name":"부산대교","hb":3.7,"h":7.7},"geometry":{"type":"Polygon","coordinates":[[[129.0389261502967,35.09614231802931],[129.03929155401445,35.095488805276766],[129.03911184046356,35.09542153701161],[129.0387464367458,35.09607504976415],[129.0389261502967,35.09614231802931]]]}},{"type":"Feature","properties":{"kind":"deck","name":"부산대교","hb":0.9,"h":4.9},"geometry":{"type":"Polygon","coordinates":[[[129.0392880457861,35.0954944776598],[129.0397138044775,35.094868337826995],[129.03954110738331,35.094789724795774],[129.03911534869192,35.09541586462858],[129.0392880457861,35.0954944776598]]]}},{"type":"Feature","properties":{"kind":"deck","name":"부산대교","hb":0.5,"h":3},"geometry":{"type":"Polygon","coordinates":[[[129.03968460905773,35.094894983539504],[129.04005595312734,35.09467955222812],[129.03994164687268,35.09454764777188],[129.03957030280307,35.094763079083265],[129.03968460905773,35.094894983539504]]]}}]}