{"type":"FeatureCollection","features":[{"type":"Feature","properties":{"lm":"zenith","kind":"tier","key":"299.9|2383","hb":0,"h":299.9},"geometry":{"type":"Polygon","coordinates":[[[129.145799,35.157083],[129.145799,35.157087],[129.145819,35.157097],[129.145896,35.15712],[129.145904,35.157134],[129.145918,35.157152],[129.14597,35.157158],[129.14599,35.157141],[129.146025,35.1571],[129.146051,35.157049],[129.146065,35.157021],[129.146181,35.157002],[129.146214,35.157022],[129.146265,35.15705],[129.146331,35.157054],[129.146362,35.157039],[129.146373,35.157018],[129.146369,35.156985],[129.146393,35.156954],[129.146417,35.156909],[129.14634,35.156862],[129.146312,35.156851],[129.14624,35.156823],[129.146226,35.156807],[129.146217,35.156772],[129.146229,35.15674],[129.146244,35.156726],[129.146259,35.156701],[129.146284,35.156644],[129.146289,35.156612],[129.146259,35.156597],[129.14619,35.156577],[129.146186,35.156567],[129.146163,35.156542],[129.146154,35.156536],[129.146134,35.156536],[129.146092,35.156561],[129.146067,35.156592],[129.146048,35.156624],[129.146027,35.156674],[129.146006,35.156692],[129.145988,35.156701],[129.145926,35.156703],[129.145904,35.156694],[129.145852,35.156668],[129.145807,35.156652],[129.14577,35.156645],[129.145723,35.156661],[129.145717,35.156674],[129.145715,35.156694],[129.145729,35.156708],[129.145719,35.156714],[129.145702,35.156735],[129.145672,35.156789],[129.145675,35.156792],[129.145776,35.156848],[129.145809,35.156857],[129.145823,35.156856],[129.145858,35.156885],[129.145871,35.156919],[129.14587,35.156937],[129.145829,35.156998],[129.145808,35.157043],[129.145799,35.157083]]]}},{"type":"Feature","properties":{"lm":"zenith","kind":"tier","key":"283.9|2365","hb":0,"h":283.9},"geometry":{"type":"Polygon","coordinates":[[[129.144593,35.157439],[129.144613,35.157449],[129.144643,35.157459],[129.144676,35.157468],[129.144685,35.157474],[129.144688,35.157477],[129.144691,35.157484],[129.144706,35.1575],[129.144728,35.157509],[129.14477,35.1575],[129.144794,35.157474],[129.144828,35.157424],[129.144844,35.157381],[129.14486,35.157362],[129.144881,35.157348],[129.144905,35.157341],[129.14494,35.157342],[129.14498,35.157359],[129.145014,35.157376],[129.145053,35.15739],[129.145104,35.157402],[129.145143,35.157393],[129.145153,35.157382],[129.14516,35.157362],[129.145152,35.157336],[129.14516,35.157327],[129.145182,35.157299],[129.14521,35.157258],[129.145182,35.15724],[129.145136,35.15722],[129.14509,35.157197],[129.145043,35.157183],[129.145013,35.157155],[129.145005,35.157114],[129.145018,35.157086],[129.145033,35.157069],[129.14507,35.156993],[129.145073,35.156958],[129.145033,35.15694],[129.14498,35.156926],[129.144959,35.156896],[129.144919,35.156886],[129.144884,35.156904],[129.14484,35.156965],[129.144811,35.157025],[129.144775,35.15705],[129.14472,35.157053],[129.144652,35.157022],[129.144588,35.156999],[129.144543,35.156994],[129.144508,35.157013],[129.144503,35.157042],[129.144516,35.157058],[129.144487,35.157087],[129.144459,35.157138],[129.144506,35.157171],[129.144588,35.157203],[129.144634,35.157224],[129.144657,35.157263],[129.144657,35.157283],[129.144643,35.157312],[129.1446,35.157377],[129.144593,35.157439]]]}},{"type":"Feature","properties":{"lm":"zenith","kind":"tier","key":"267.9|2381","hb":0,"h":267.9},"geometry":{"type":"Polygon","coordinates":[[[129.145137,35.156328],[129.145175,35.156368],[129.145237,35.156343],[129.145301,35.156234],[129.145355,35.156199],[129.145411,35.156203],[129.145567,35.15626],[129.145599,35.156249],[129.145615,35.156219],[129.145607,35.156194],[129.145636,35.156157],[129.145628,35.156094],[129.145508,35.156043],[129.145459,35.155995],[129.145462,35.155958],[129.145526,35.155839],[129.14551,35.155808],[129.14543,35.155782],[129.145419,35.15576],[129.145371,35.155743],[129.145314,35.155786],[129.145263,35.155883],[129.14518,35.155911],[129.145062,35.155863],[129.144982,35.155854],[129.144958,35.155876],[129.144963,35.155916],[129.144912,35.155995],[129.144947,35.156019],[129.145057,35.156065],[129.145111,35.156113],[129.145108,35.156146],[129.145052,35.15624],[129.145046,35.156297],[129.145137,35.156328]]]}},{"type":"Feature","properties":{"lm":"ipark","kind":"tier","key":"292.7|2138","hb":0,"h":292.7},"geometry":{"type":"Polygon","coordinates":[[[129.14161,35.155909],[129.14164,35.155952],[129.141684,35.156009],[129.141769,35.156095],[129.141828,35.156145],[129.141907,35.156199],[129.141954,35.156228],[129.142068,35.156282],[129.142132,35.156307],[129.142184,35.156324],[129.142196,35.156328],[129.142176,35.15628],[129.142157,35.156236],[129.142139,35.156193],[129.142175,35.156181],[129.142215,35.156167],[129.14225,35.156161],[129.14233,35.156149],[129.142363,35.156146],[129.142373,35.156146],[129.14238,35.156127],[129.142391,35.156077],[129.142393,35.156054],[129.142397,35.156005],[129.142395,35.155976],[129.142387,35.155925],[129.14238,35.155884],[129.142363,35.155845],[129.142344,35.155854],[129.142253,35.155894],[129.142184,35.155918],[129.142129,35.155935],[129.142039,35.155954],[129.141968,35.155797],[129.141928,35.15583],[129.141887,35.155856],[129.141842,35.155877],[129.141782,35.155896],[129.141719,35.155908],[129.141675,35.155911],[129.14161,35.155909]]]}},{"type":"Feature","properties":{"lm":"ipark","kind":"tier","key":"273.5|2129","hb":0,"h":273.5},"geometry":{"type":"Polygon","coordinates":[[[129.142194,35.15714],[129.142238,35.15716],[129.142359,35.157206],[129.142565,35.157252],[129.14266,35.157265],[129.142706,35.157266],[129.142819,35.157265],[129.142856,35.157262],[129.142884,35.157259],[129.142951,35.15725],[129.142959,35.157249],[129.142955,35.157246],[129.14291,35.1572],[129.142871,35.157146],[129.142839,35.157059],[129.142833,35.157002],[129.142837,35.15695],[129.142648,35.157006],[129.142615,35.156965],[129.142587,35.156877],[129.142546,35.156729],[129.142482,35.156752],[129.142389,35.156799],[129.142314,35.156852],[129.142254,35.156911],[129.142304,35.156989],[129.142337,35.157036],[129.142355,35.157079],[129.142359,35.157091],[129.142194,35.15714]]]}},{"type":"Feature","properties":{"lm":"ipark","kind":"tier","key":"206.3|2132","hb":0,"h":206.3},"geometry":{"type":"Polygon","coordinates":[[[129.142546,35.154844],[129.142525,35.154853],[129.142486,35.154873],[129.14243,35.154904],[129.142363,35.154947],[129.142316,35.154979],[129.142273,35.155016],[129.142212,35.155073],[129.142167,35.155124],[129.142131,35.155172],[129.142108,35.155206],[129.142081,35.155253],[129.14206,35.155293],[129.142043,35.155329],[129.142206,35.15528],[129.142224,35.155312],[129.142237,35.15534],[129.142247,35.155369],[129.142255,35.155399],[129.142262,35.155435],[129.142266,35.155464],[129.142267,35.155474],[129.1423,35.155479],[129.14233,35.155485],[129.142373,35.155489],[129.142404,35.15549],[129.142435,35.15549],[129.142474,35.155489],[129.142516,35.155485],[129.142558,35.155478],[129.142603,35.155469],[129.142632,35.15546],[129.142599,35.155414],[129.142573,35.155372],[129.14255,35.15533],[129.142533,35.155297],[129.142516,35.155251],[129.142502,35.155213],[129.142495,35.155194],[129.142687,35.155137],[129.142674,35.155129],[129.142654,35.155111],[129.142625,35.155083],[129.142604,35.155057],[129.142587,35.155029],[129.142565,35.154987],[129.142558,35.154964],[129.142549,35.154928],[129.142546,35.154899],[129.142545,35.15487],[129.142546,35.154852],[129.142546,35.154844]]]}},{"type":"Feature","properties":{"lm":"hyatt","kind":"tier","key":"169.8|1636","hb":0,"h":169.8},"geometry":{"type":"Polygon","coordinates":[[[129.142106,35.156785],[129.141994,35.15664],[129.142106,35.156589],[129.142018,35.156479],[129.141896,35.156328],[129.141828,35.156292],[129.141798,35.156336],[129.141738,35.156401],[129.141673,35.156456],[129.141498,35.156524],[129.141549,35.156581],[129.141655,35.15668],[129.141783,35.156742],[129.141955,35.156778],[129.142106,35.156785]]]}},{"type":"Feature","properties":{"lm":"bifc","kind":"tier","key":"289|328","hb":0,"h":289},"geometry":{"type":"Polygon","coordinates":[[[129.066592,35.146566],[129.066814,35.147035],[129.066342,35.147184],[129.066121,35.146715],[129.066592,35.146566]]]}},{"type":"Feature","properties":{"lm":"cinema","kind":"tier","key":"43.2|17890","hb":0,"h":43.2},"geometry":{"type":"Polygon","coordinates":[[[129.126981,35.170199],[129.125992,35.171421],[129.12655,35.171725],[129.126904,35.171287],[129.126968,35.171322],[129.126888,35.171419],[129.127494,35.17175],[129.128097,35.171004],[129.127971,35.170897],[129.127751,35.170649],[129.127663,35.170574],[129.127601,35.170539],[129.127606,35.170533],[129.126981,35.170199]]]}},{"type":"Feature","properties":{"lm":"tower","kind":"tower","hb":0,"h":100},"geometry":{"type":"Polygon","coordinates":[[[129.032451,35.10096],[129.032549,35.10096],[129.032549,35.10104],[129.032451,35.10104],[129.032451,35.10096]]]}},{"type":"Feature","properties":{"lm":"tower","kind":"tower","hb":100,"h":112},"geometry":{"type":"Polygon","coordinates":[[[129.032379,35.100901],[129.032621,35.100901],[129.032621,35.101099],[129.032379,35.101099],[129.032379,35.100901]]]}},{"type":"Feature","properties":{"lm":"tower","kind":"tower","hb":112,"h":120},"geometry":{"type":"Polygon","coordinates":[[[129.032478,35.100982],[129.032522,35.100982],[129.032522,35.101018],[129.032478,35.101018],[129.032478,35.100982]]]}}]}